Name,Address,Zip,Latitude,Longitude
Piccola Cucina,184 Prince St New York City, NY 10012-2979,40.812242,-73.9532
SottoCasa Pizzeria,227 Lenox Ave New York City, NY 10027-6542,40.812242,-73.9532
Boucherie Park Avenue South,225 Park Ave S New York City, NY 10003-1604,40.730223,-73.988564
Pisillo Italian Panini,97 Nassau St New York City, NY 10038-2703,40.710223,-74.003368
Club A Steakhouse,240 E 58th Street New York City, NY 10022-2001,40.758775,-73.967842
Daniel,60 East 65th Street New York City, NY 10065-7056,40.764584,-73.963013
Song E Napule,146 W Houston St New York City, NY 10012-2561,40.725581,-73.998078
Piccola Cucina,196 Spring St New York City, NY 10012-3621,40.725581,-73.998078
Decoy Bar,529 1/2 Hudson St New York City, NY 10014-2601,40.738088,-74.005095
Sottocasa Pizzeria,298 Atlantic Ave Brooklyn, NY 11201-6763,40.694481,-73.989319
Petite Boucherie,14 Christopher St New York City, NY 10014-3523,40.738088,-74.005095
Faiccos Pork Store,260 Bleecker St New York City, NY 10014-4128,40.738088,-74.005095
Los Tacos No. 1,75 9th Ave New York City, NY 10011-7006,40.740916,-73.999769
Spice Symphony,150 E 50th St New York City, NY 10022-9500,40.758775,-73.967842
Per Se,10 Columbus Cir New York City, NY 10019-1158,40.765926,-73.985443
Fiore Deli of Hoboken,414 Adams St Hoboken, NJ 07030-2693,40.746851,-74.033934
Le Bernardin,155 W 51st St New York City, NY 10019-6019,40.765926,-73.985443
Murrays Cheese,254 Bleecker St New York City, NY 10014-4101,40.738088,-74.005095
Pure Thai Cookhouse,766 9th Ave New York City, NY 10019-6323,40.765926,-73.985443
K Rico,772 9th Ave New York City, NY 10019-6327,40.765926,-73.985443
Eileens Special Cheesecake,17 Cleveland Pl New York City, NY 10012-4052,40.725581,-73.998078
Gabriel Kreuther,41 W 42nd St New York City, NY 10036-8003,40.75953,-73.989847
Bleecker Street Pizza,69 7th Ave S New York City, NY 10014-4043,40.738088,-74.005095
B Side Pizzeria,370 W 51st St New York City, NY 10019-6403,40.765926,-73.985443
Boucherie Restaurant,99 7th Ave S New York City, NY 10014-3415,40.738088,-74.005095
Olio e Piu,3 Greenwich Ave New York City, NY 10014-3543,40.738088,-74.005095
Royal 35 Steakhouse,1 E 35th Street New York City, NY 10016-3828,40.745527,-73.978449
Gramercy Tavern,42 E 20th St New York City, NY 10003-1300,40.730223,-73.988564
Julianas Pizza,19 Old Fulton St Brooklyn, NY 11201-1322,40.694481,-73.989319
Jungsik,2 Harrison St New York City, NY 10013-2810,40.722105,-74.003497
Indian Accent,123 W 56th St New York City, NY 10019-3802,40.765926,-73.985443
The Modern,9 W 53rd St New York City, NY 10019-5401,40.765926,-73.985443
Momofuku Ko,8 Extra Pl New York City, NY 10003-8926,40.730223,-73.988564
Tree Bistro,190 1st Ave New York City, NY 10009-4004,40.72775,-73.980396
San Carlo Osteria Piemonte,90 Thompson St New York City, NY 10012-3744,40.725581,-73.998078
San Matteo Pizza Espresso Bar,1739 2nd Ave New York City, NY 10128-3502,40.780989,-73.95158
Nish Nush,88 Reade St New York City, NY 10013-3814,40.722105,-74.003497
LArtusi,228 W 10th St New York City, NY 10014-6405,40.738088,-74.005095
The Musket Room,265 Elizabeth St New York City, NY 10012-3989,40.725581,-73.998078
RabbitHole,352 Bedford Ave Brooklyn, NY 11249-5586,40.645099,-73.945032
Hatsuhana Restaurant,17 E 48th St Ste 1 New York City, NY 10017-1010,40.752955,-73.973196
Bouley Restaurant,163 Duane Street New York City, NY 10013-3810,40.722105,-74.003497
Rubirosa,235 Mulberry St New York City, NY 10012-4157,40.725581,-73.998078
Craft,43 E 19th St New York City, NY 10003-1304,40.730223,-73.988564
Broadway Bagel,2658 Broadway New York City, NY 10025-5023,40.798664,-73.967778
Russ & Daughters,179 E Houston St New York City, NY 10002-1024,40.718758,-73.986427
Izakaya Mew,53 W 35th St New York City, NY 10001-2219,40.750422,-73.996328
Gallaghers Steak House,228 W 52nd St New York City, NY 10019-5802,40.765926,-73.985443
Beyond Sushi,229 E 14th St New York City, NY 10003-4111,40.730223,-73.988564
Loi Estiatorio,132 W 58th St New York City, NY 10019-2135,40.765926,-73.985443
Russ & Daughters Cafe,127 Orchard St New York City, NY 10002-3103,40.718758,-73.986427
Numero 28 Pizzeria,28 Carmine St New York City, NY 10014-4437,40.738088,-74.005095
Lincoln Square Steak,208 W 70th Street New York City, NY 10023-4302,40.776765,-73.982213
Cull & Pistol,75 9th Ave New York City, NY 10011-7006,40.740916,-73.999769
Mastros Steakhouse,1285 Avenue of the Americas New York City, NY 10019,40.765926,-73.985443
Patsys Italian Restaurant,236 W 56th St New York City, NY 10019-4306,40.765926,-73.985443
Rafele,29 7th Ave S New York City, NY 10014-3938,40.738088,-74.005095
Via Della Pace,48 E 7th St New York City, NY 10003-8437,40.730223,-73.988564
Keens Steakhouse,72 West 36th Street New York City, NY 10018-8025,40.755332,-73.993172
Upstate,95 1st Ave New York City, NY 10003-2902,40.730223,-73.988564
Momosan Ramen & Sake,342 Lexington Ave New York City, NY 10016-0907,40.745527,-73.978449
Tocqueville,1 E 15th St New York City, NY 10003-3102,40.730223,-73.988564
Nerai,55 E 54th St New York City, NY 10022-4206,40.758775,-73.967842
Bagels & Schmear,114 E 28th St New York City, NY 10016-8402,40.745527,-73.978449
Cafe Mogador,133 Wythe Ave Brooklyn, NY 11249-2809,40.645099,-73.945032
Her Name Is Han,17 East 31st 1st New York City, NY 10016,40.745527,-73.978449
Rustic Table,504 W 42nd St New York City, NY 10036-6204,40.75953,-73.989847
Almayass,24 E 21st St New York City, NY 10010-7200,40.739024,-73.983542
Gotham Bar & Grill,12 E 12th St New York City, NY 10003-4428,40.730223,-73.988564
Il Punto Ristorante,507 9th Ave New York City, NY 10018-2802,40.755332,-73.993172
Bemelmans Bar,35 E 76th St New York City, NY 10021-1827,40.768823,-73.960257
Atera,77 Worth St New York City, NY 10013-3411,40.722105,-74.003497
The Little Owl,90 Bedford St New York City, NY 10014-3764,40.738088,-74.005095
Oregano,102 Berry St Brooklyn, NY 11249-3231,40.645099,-73.945032
Cocotte,110 Thompson St New York City, NY 10012-3749,40.725581,-73.998078
Scalini Fedeli,165 Duane St New York City, NY 10013-3332,40.722105,-74.003497
The Capital Grille,155 E 42nd St New York City, NY 10017-5608,40.752955,-73.973196
Flex Mussels - 13th Street,154 W 13th St New York City, NY 10011-7802,40.740916,-73.999769
Jacob Restaurant Soul Food & Salad Bar,2695 Frederick Douglass Blvd New York City, NY 10030-1206,40.818474,-73.94329
The Lobster Place,75 9th Ave New York City, NY 10011-7006,40.740916,-73.999769
Dinosaur Bar-B-Que,700 W 125th St New York City, NY 10027-2314,40.812242,-73.9532
Taim West Village,222 Waverly Pl New York City, NY 10014-2404,40.738088,-74.005095
Estiatorio Milos,125 W 55th St New York City, NY 10019-5369,40.765926,-73.985443
The Mean Fiddler,266 W 47th St New York City, NY 10036-1411,40.75953,-73.989847
Amelie,22 W 8th St New York City, NY 10011-9002,40.740916,-73.999769
Jacobs Pickles,509 Amsterdam Ave New York City, NY 10024-3941,40.798452,-73.974414
Robert,2 Columbus Cir New York City, NY 10019-1800,40.765926,-73.985443
Whiskey Tavern,79 Baxter St New York City, NY 10013-4462,40.722105,-74.003497
Casellula,401 W 52nd St New York City, NY 10019-5625,40.765926,-73.985443
Ocean Prime,123 W 52nd St New York City, NY 10019-6003,40.765926,-73.985443
The River Cafe,1 Water St Brooklyn, NY 11201-1335,40.694481,-73.989319
Hummus Place Upper West Side,305 Amsterdam Ave New York City, NY 10023-1739,40.776765,-73.982213
Up Thai restaurant,1411 2nd Ave New York City, NY 10021-3771,40.768823,-73.960257
Del Posto,85 Tenth Avenue New York City, NY 10011,40.740916,-73.999769
Pizza Suprema,413 8th Ave New York City, NY 10001-1804,40.750422,-73.996328
Chefs Club,275 Mulberry St New York City, NY 10012-3329,40.725581,-73.998078
Blue Hill,75 Washington Pl New York City, NY 10011-9174,40.740916,-73.999769
Patzeria Family & Friends,311 W. 48th Street New York City, NY 10036-1300,40.75953,-73.989847
Beyond Sushi,62 W 56th St New York City, NY 10019-3824,40.765926,-73.985443
Amish Market East,240 E 45th St New York City, NY 10017-3302,40.752955,-73.973196
The Donut Pub,203 W 14th St New York City, NY 10011-7104,40.740916,-73.999769
Emilios Ballato,55 E Houston St New York City, NY 10012-2712,40.725581,-73.998078
Red Bamboo,140 W4th St New York City, NY 10012-1049,40.725581,-73.998078
Ippudo,321 W 51st St New York City, NY 10019-6401,40.765926,-73.985443
Mermaid Oyster Bar,79 Macdougal St New York City, NY 10012-2514,40.725581,-73.998078
BG - Bergdorf Goodman,754 5th Ave New York City, NY 10019-2503,40.765926,-73.985443
AQUAGRILL,210 Spring St New York City, NY 10012-3601,40.725581,-73.998078
Hangawi,12 E 32nd St New York City, NY 10016-5419,40.745527,-73.978449
Momoya,185 7th Ave New York City, NY 10011-1804,40.740916,-73.999769
El Centro,824 9th Ave New York City, NY 10019-5554,40.765926,-73.985443
IL Melograno,501 W 51st St New York City, NY 10019-5341,40.765926,-73.985443
Henrys End Restaurant,44 Henry St Brooklyn, NY 11201-1329,40.694481,-73.989319
The Dead Rabbit,30 Water St New York City, NY 10004-2411,40.68863,-74.018244
The Original SoupMan,259A W 55th St New York City, NY 10019-5202,40.765926,-73.985443
Aurora SoHo,510 Broome St New York City, NY 10013-1695,40.722105,-74.003497
Barn Joo 35,34 W 35th St New York City, NY 10001-2256,40.750422,-73.996328
Bistango Restaurant,415 3rd Ave New York City, NY 10016-8104,40.745527,-73.978449
Land,450 Amsterdam Ave New York City, NY 10024-5507,40.798452,-73.974414
The Capital Grille,120 W 51st St New York City, NY 10020-1300,40.758236,-73.978833
The NoMad Bar,10 W 28th St New York City, NY 10001-6403,40.750422,-73.996328
Basso56,234 W 56th St New York City, NY 10019-4302,40.765926,-73.985443
PRINT,653 11th Ave New York City, NY 10036-2004,40.75953,-73.989847
Whole Foods Market,10 Columbus Cir New York City, NY 10019-1158,40.765926,-73.985443
Blue Ribbon Sushi,119 Sullivan St New York City, NY 10012-3680,40.725581,-73.998078
Bareburger,366 W 46th St New York City, NY 10036-8307,40.75953,-73.989847
Burger & Lobster,39 W 19th St New York City, NY 10011-4225,40.740916,-73.999769
Ribalta Pizza,48 E 12th St New York City, NY 10003-4640,40.730223,-73.988564
Buddakan,75 9th Ave New York City, NY 10011-7006,40.740916,-73.999769
Tonys Di Napoli - Midtown,147 W 43rd St New York City, NY 10036-6575,40.75953,-73.989847
Eds Lobster Bar,222 Lafayette St New York City, NY 10012-4026,40.725581,-73.998078
Johns of Bleecker Street,278 Bleecker St New York City, NY 10014-4105,40.738088,-74.005095
Via Carota,51 Grove St New York City, NY 10014-3416,40.738088,-74.005095
Montes Trattoria,97 Macdougal St New York City, NY 10012-1259,40.725581,-73.998078
Hells Kitchen,754 9th Ave New York City, NY 10019-8419,40.765926,-73.985443
Marea,240 Central Park S New York City, NY 10019-1457,40.765926,-73.985443
Masseria Dei Vini,887 9th Ave New York City, NY 10019-1704,40.765926,-73.985443
Le Cou Cou Restaurant,138 Lafayette St New York City, NY 10013-3161,40.722105,-74.003497
Joes Pizza,150 East 14th Street New York City, NY 10003,40.730223,-73.988564
Benjamin Steakhouse Prime,23 E 40th St New York City, NY 10016-0106,40.745527,-73.978449
Sunac Natural Food,600 W 42nd St New York City, NY 10036-2007,40.75953,-73.989847
Emporio,231 Mott St New York City, NY 10012-5711,40.725581,-73.998078
The Grey Dog,244 Mulberry St New York City, NY 10012-4105,40.725581,-73.998078
Sea Fire Grill,158 E 48th St New York City, NY 10017-1224,40.752955,-73.973196
La Grenouille,3 E 52nd St New York City, NY 10022-5301,40.758775,-73.967842
The Boil,139 Chrystie St New York City, NY 10002-2857,40.718758,-73.986427
Jean Georges,1 Central Park W New York City, NY 10023-7702,40.776765,-73.982213
Feinsteins/54 Below,254 W 54th St New York City, NY 10019-5516,40.765926,-73.985443
Orso,322 W 46th St New York City, NY 10036-3801,40.75953,-73.989847
Jimmys Corner,140 W 44th St New York City, NY 10036-4046,40.75953,-73.989847
Taboon,773 10th Ave New York City, NY 10019-5027,40.765926,-73.985443
The Red Cat,227 10th Ave New York City, NY 10011-4717,40.740916,-73.999769
Tomoe Sushi,172 Thompson St New York City, NY 10012-2576,40.725581,-73.998078
Dean Deluca,575 Broadway New York City, NY 10012-3230,40.725581,-73.998078
Franchia Vegan Cafe,12 Park Ave New York City, NY 10016-4307,40.745527,-73.978449
Market Table,54 Carmine St New York City, NY 10014-4424,40.738088,-74.005095
Baz Bagel and Restaurant,181 Grand St New York City, NY 10013-3734,40.722105,-74.003497
Blue Ribbon Brasserie,97 Sullivan St New York City, NY 10012-3663,40.725581,-73.998078
Jacks Wife Freda,224 Lafayette St New York City, NY 10012-4027,40.725581,-73.998078
Shake Shack,Southeast Corner of Madison Square Park New York City, NY 10010,40.739024,-73.983542
Cuba,222 Thompson St New York City, NY 10012-1363,40.725581,-73.998078
Veselka,144 2nd Ave New York City, NY 10003-8305,40.730223,-73.988564
DeStefanos Steak House,89 Conselyea St Brooklyn, NY 11211-2301,40.712597,-73.953098
Raclette,511 E 12th St New York City, NY 10009-3879,40.72775,-73.980396
Morton Williams - 57th St,140 W 57th St New York City, NY 10019-3326,40.765926,-73.985443
Tanner Smiths,204 W 55th St New York City, NY 10019-5240,40.765926,-73.985443
Joes Pizza - Carmine St,7 Carmine St New York City, NY 10014-4441,40.738088,-74.005095
Murrays Cheese Bar,264 Bleecker St New York City, NY 10014-4101,40.738088,-74.005095
Momofuku Noodle Bar,171 1st Ave New York City, NY 10003-2949,40.730223,-73.988564
Buenos Aires,513 E 6th St New York City, NY 10009-6621,40.72775,-73.980396
Saigon Shack,114 Macdougal St New York City, NY 10012-1245,40.725581,-73.998078
Il Corso,54 W 55th St New York City, NY 10019-5309,40.765926,-73.985443
Forlinis Restaurant,93 Baxter St New York City, NY 10013-4491,40.722105,-74.003497
Filaga Pizzeria e Rosticceria Siciliana,75 9th Ave New York City, NY 10011-7006,40.740916,-73.999769
Blind Tiger Ale House,281 Bleecker St New York City, NY 10014-4106,40.738088,-74.005095
Pylos,128 E 7th St New York City, NY 10009-6100,40.72775,-73.980396
Queen Italian Restaurant,84 Court St Brooklyn, NY 11201-5042,40.694481,-73.989319
Dirt Candy,86 Allen St New York City, NY 10002-3014,40.718758,-73.986427
Marc Forgione,134 Reade St New York City, NY 10013-3958,40.722105,-74.003497
Buvette Gastrotheque,42 Grove St New York City, NY 10014-5310,40.738088,-74.005095
Bareburger,153 8th Ave New York City, NY 10011-5107,40.740916,-73.999769
Westville Hudson,333 Hudson St New York City, NY 10013-1006,40.722105,-74.003497
Da Andrea Ristorante,35 W 13th St New York City, NY 10011-7924,40.740916,-73.999769
La Lanterna di Vittorio,129 Macdougal St New York City, NY 10012-1076,40.725581,-73.998078
53rd & 6th Halal,w53rd Street & 6th Ave. New York City, NY 10019,40.765926,-73.985443
Fried Dumpling,106 Mosco St New York City, NY 10013-4321,40.722105,-74.003497
Tamarind - Tribeca,99 Hudson St New York City, NY 10013-2815,40.722105,-74.003497
Da Marino Restaurant,220 W 49th St New York City, NY 10019-7562,40.765926,-73.985443
Lukes Lobster East Village,93 E 7th St New York City, NY 10009-5702,40.72775,-73.980396
Palma,28 Cornelia St New York City, NY 10014-4126,40.738088,-74.005095
Margon,136 W 46th St New York City, NY 10036-8505,40.75953,-73.989847
The MasalaWala,179 Essex St New York City, NY 10002-1547,40.718758,-73.986427
Sushi Yasaka,251 W 72nd St New York City, NY 10023-2736,40.776765,-73.982213
PizzArte,69 W 55th St New York City, NY 10019-4934,40.765926,-73.985443
Giorgios of Gramercy,27 E 21st St New York City, NY 10010-6208,40.739024,-73.983542
Rainbow Room,30 Rockefeller Plz New York City, NY 10112-0015,40.759287,-73.979808
Pearl Oyster Bar,18 Cornelia St New York City, NY 10014-4138,40.738088,-74.005095
La Masseria,235 W 48th St New York City, NY 10036-1404,40.75953,-73.989847
Mogador Cafe,101 Saint Marks Pl New York City, NY 10009-5146,40.72775,-73.980396
Trattoria Pesce Pasta,262 Bleecker St New York City, NY 10014-4101,40.738088,-74.005095
The Halal Guys,6th Avenue At 53rd New York City, NY,40.68863,-74.018244
Angela’s Sandwich Shop,1428 Avenue of the Americas New York City, NY 10019-1504,40.765926,-73.985443
Zuckers Bagels & Smoked Fish,370 Lexington Avenue New York City, NY 10017,40.752955,-73.973196
Gato,324 Lafayette St New York City, NY 10012-2726,40.725581,-73.998078
The Polo Bar at Ralph Lauren,1 E 55th St New York City, NY 10022-3111,40.758775,-73.967842
Barney Greengrass,541 Amsterdam Ave New York City, NY 10024-2803,40.798452,-73.974414
Eleven Madison Park,11 Madison Ave New York City, NY 10010-3643,40.739024,-73.983542
Del Friscos Double Eagle Steakhouse,1221 Avenue of the Americas New York City, NY 10020-1001,40.758236,-73.978833
Pisticci,125 La Salle St New York City, NY 10027-4651,40.812242,-73.9532
Hudson Eats,225 Liberty St New York City, NY 10281-1048,40.714643,-74.014958
Carmines Italian Restaurant - Times Square,200 W 44th St New York City, NY 10036,40.75953,-73.989847
Red Farm,2170 Broadway New York City, NY 10024-6642,40.798452,-73.974414
Toscana 49,143E 49st New York City, NY 10017,40.752955,-73.973196
Keste West Village,271 Bleecker St New York City, NY 10014-4102,40.738088,-74.005095
Black Iron Burger,540 E 5th St New York City, NY 10009-6529,40.72775,-73.980396
Crispo,240 W 14th St New York City, NY 10011-7218,40.740916,-73.999769
Flex Mussels,174 E 82nd St New York City, NY 10028-1839,40.776629,-73.953914
Island Burgers and Shakes,766 9th Ave New York City, NY 10019-6323,40.765926,-73.985443
Maison Premiere,298 Bedford Ave Brooklyn, NY 11249-4205,40.645099,-73.945032
The Capital Grille,120 Broadway New York City, NY 10271-0002,40.708236,-74.010541
by CHLOE. Bleecker Street,185 Bleecker St New York City, NY 10012-1415,40.725581,-73.998078
STATE Grill and Bar,21 West 33rd St New York City, NY 10118-0110,40.748998,-73.986467
Spice Symphony 31st,182 Lexington Ave New York City, NY 10016-6849,40.745527,-73.978449
Red Hook Lobster Pound,284 Van Brunt St Brooklyn, NY 11231-1236,40.676521,-74.003322
Il Gattopardo,13 W 54th St New York City, NY 10019-5422,40.765926,-73.985443
Trattoria Trecolori,254 W 47th St New York City, NY 10036-5652,40.75953,-73.989847
The Bluebell Cafe,293 3rd Ave New York City, NY 10010-5502,40.739024,-73.983542
Little Italy Gourmet Pizza,55 W 45th St New York City, NY 10036-4604,40.75953,-73.989847
The Perfect Pint,123 W 45th St New York City, NY 10036-4004,40.75953,-73.989847
Eisenbergs Sandwich Shop,174 5th Ave New York City, NY 10010-5913,40.739024,-73.983542
Via Brasil Restaurant,34 W 46th St New York City, NY 10036-4520,40.75953,-73.989847
2nd Avenue Deli,162 E 33rd St New York City, NY 10016-4669,40.745527,-73.978449
Perry St,176 Perry St New York City, NY 10014-2384,40.738088,-74.005095
Peacefood Cafe,460 Amsterdam Ave New York City, NY 10024-5002,40.798452,-73.974414
Bengal Tiger,58 W 56th St New York City, NY 10019-3820,40.765926,-73.985443
Artichoke Pizza,328 E 14th St New York City, NY 10003-4230,40.730223,-73.988564
Westway Diner,614 9th Ave New York City, NY 10036-3731,40.75953,-73.989847
Hakata Ippudo NY,65 4th Ave New York City, NY 10003-5220,40.730223,-73.988564
OHaras Restaurant and Pub,120 Cedar St New York City, NY 10006-1530,40.708834,-74.013168
Jongro BBQ,22 W 32nd St New York City, NY 10001-3807,40.750422,-73.996328
Caracas Arepa Bar,91 E 7th St New York City, NY 10009-5729,40.72775,-73.980396
Los Tacos No. 1,229 W 43rd St New York City, NY 10036-3982,40.75953,-73.989847
Dean & Deluca,560 Broadway New York City, NY 10012-3938,40.725581,-73.998078
Raouls,180 Prince St New York City, NY 10012-2924,40.725581,-73.998078
Senza Gluten,206 Sullivan St New York City, NY 10012-4817,40.725581,-73.998078
Andrews Coffee Shop,463 7th Ave New York City, NY 10018-7604,40.755332,-73.993172
Bond Street,6 Bond St New York City, NY 10012-2332,40.725581,-73.998078
Black Iron Burger,245 W 38th St New York City, NY 10018-4509,40.755332,-73.993172
Candle 79,154 E 79th St New York City, NY 10075-0423,40.773357,-73.956208
Fornino,187 Bedford Ave Brooklyn, NY 11211-5787,40.712597,-73.953098
Fluffys Cafe & Pizzeria,370 W 58th St New York City, NY 10019-1828,40.765926,-73.985443
Blossom Vegan Restaurant,187 9th Ave New York City, NY 10011-4906,40.740916,-73.999769
Pommes Frites,128 Macdougal St New York City, NY 10012-5027,40.725581,-73.998078
The Perfect Pint,203 E 45th St New York City, NY 10017,40.752955,-73.973196
Piacere,351 Broome St New York City, NY 10013-4236,40.722105,-74.003497
Batard,239 W Broadway New York City, NY 10013-2409,40.722105,-74.003497
Fish,280 Bleecker St New York City, NY 10014-4159,40.738088,-74.005095
Lukes Lobster- Upper East Side,242 E 81st St New York City, NY 10028-2602,40.776629,-73.953914
Eataly,200 Fifth Ave New York City, NY 10010-3302,40.739024,-73.983542
Coppelia,207 W 14th St New York City, NY 10011-7143,40.740916,-73.999769
Luzzo’s,211 1st Ave New York City, NY 10003-2982,40.730223,-73.988564
Boulud Sud,20 W 64th St New York City, NY 10023-7129,40.776765,-73.982213
BLT Steak,106 E 57th St New York City, NY 10022,40.758775,-73.967842
Ayza Wine & Chocolate Bar,11 W 31st St New York City, NY 10001-4402,40.750422,-73.996328
Sweet Chick,178 Ludlow St New York City, NY 10002-1549,40.718758,-73.986427
Georgios Country Grill,801 9th Ave New York City, NY 10019-5601,40.765926,-73.985443
Hillstone,378 Park Ave S New York City, NY 10010-1702,40.739024,-73.983542
5 Napkin Burger,630 9th Ave New York City, NY 10036,40.75953,-73.989847
Lillies Victorian Establishment,249 W 49th St New York City, NY 10019-7404,40.765926,-73.985443
Cafe Habana,17 Prince Street @ Elizabeth New York City, NY 10012-3507,40.725581,-73.998078
Pure & Fresh,58 W 36th St New York City, NY 10018-8008,40.755332,-73.993172
Stage Door Deli,26 Vesey St New York City, NY 10007-2906,40.713941,-74.007401
Luke’s Lobster,26 S William St New York City, NY 10004-2495,40.68863,-74.018244
Fiat Cafe,203 Mott St New York City, NY 10012-4562,40.725581,-73.998078
Upland,345 Park Ave S New York City, NY 10010-1707,40.739024,-73.983542
12 Chairs,56 Macdougal St New York City, NY 10012-2930,40.725581,-73.998078
Loring Place,21 W 8th St New York City, NY 10011-9032,40.740916,-73.999769
Beechers Handmade Cheese,900 Broadway New York City, NY 10003-1210,40.730223,-73.988564
Dutch Freds,307 W 47th St New York City, NY 10036-2403,40.75953,-73.989847
Sushi Yasuda,204 E 43rd St New York City, NY 10017-4713,40.752955,-73.973196
la bonbonniere,28 8th Ave New York City, NY 10014-1803,40.738088,-74.005095
Sadelles,463 W Broadway New York City, NY 10012-3104,40.725581,-73.998078
Whole Foods Market,4 Union Sq S New York City, NY 10003-4196,40.730223,-73.988564
Zuckers Bagels & Smoked Fish,146 Chambers St New York City, NY 10007-1245,40.713941,-74.007401
Bistro Les Amis,180 Spring St New York City, NY 10012-3703,40.725581,-73.998078
aldea,31 W 17th St New York City, NY 10011-5529,40.740916,-73.999769
Beauty & Essex,146 Essex St New York City, NY 10002-2301,40.718758,-73.986427
Sant Ambroeus,1000 Madison Ave New York City, NY 10075-1840,40.773357,-73.956208
sweetgreen,1164 Broadway New York City, NY 10001-7512,40.750422,-73.996328
Nicks,1814 2nd Ave New York City, NY 10128-5601,40.780989,-73.95158
Two Hands,164 Mott St New York City, NY 10013-4277,40.722105,-74.003497
Crave Fishbar,945 2nd Ave New York City, NY 10022-7761,40.758775,-73.967842
Capizzi,547 9th Ave New York City, NY 10018-1324,40.755332,-73.993172
Hourglass Tavern,373 W 46th St New York City, NY 10036-3810,40.75953,-73.989847
Il Tinello Ristorante,16 W 56th St New York City, NY 10019-3872,40.765926,-73.985443
Match 65 Brasserie,29 E 65th St New York City, NY 10065-6508,40.764584,-73.963013
Nobu 57,40 W 57th St New York City, NY 10019-4001,40.765926,-73.985443
Hillstone Midtown,153 E 53rd St New York City, NY 10022-4611,40.758775,-73.967842
Prince Street Pizza,27 Prince St New York City, NY 10012-3551,40.725581,-73.998078
Westville Chelsea,246 W 18th St New York City, NY 10011-4528,40.740916,-73.999769
The Meatball Shop,84 Stanton St New York City, NY 10002-1420,40.718758,-73.986427
Augustine,5 Beekman St New York City, NY 10038-2206,40.710223,-74.003368
Oceana Restaurant,120 W 49th Street New York City, NY 10020,40.758236,-73.978833
The Leopard at des Artistes,1 W 67th St New York City, NY 10023-6200,40.776765,-73.982213
Blue Dog Kitchen Bar,308 W 50th St New York City, NY 10019-6629,40.765926,-73.985443
Amandas,908 Washington St Hoboken, NJ 07030-5152,40.746851,-74.033934
Faces and Names,159 W 54th St New York City, NY 10019-5302,40.765926,-73.985443
New York Yankees Steak House,7 West 51 Street New York City, NY 10019-6910,40.765926,-73.985443
Front Street Pizza,80 Front St Brooklyn, NY 11201-1005,40.694481,-73.989319
Uncle Pauls Pizza,70 Vanderbilt Avenue New York City, NY 10017,40.752955,-73.973196
The NoMad Restaurant,1170 Broadway New York City, NY 10001-7507,40.750422,-73.996328
21 Club,21 W 52nd St New York City, NY 10019-6181,40.765926,-73.985443
Pauls Da Burger Joint,131 2nd Ave New York City, NY 10003-8331,40.730223,-73.988564
Employees Only,510 Hudson St New York City, NY 10014-2854,40.738088,-74.005095
99 Cent Fresh Pizza,151 E 43rd St New York City, NY 10017-4017,40.752955,-73.973196
Taim Nolita,45 Spring St New York City, NY 10012-4106,40.725581,-73.998078
Xian Famous Foods,2675 Broadway New York City, NY 10025-5025,40.798664,-73.967778
Cafe Boulud,20 E 76th St New York City, NY 10021-2643,40.768823,-73.960257
Guantanamera,939 8th Ave New York City, NY 10019-4264,40.765926,-73.985443
Carmines Italian Restaurant - Upper West Side,2450 Broadway New York City, NY 10024-1103,40.798452,-73.974414
Avra Madison Estiatorio,14 East 60 Street New York City, NY 10022-1006,40.758775,-73.967842
Etcetera Etcetera Restaurant,352 W 44th St New York City, NY 10036-5419,40.75953,-73.989847
Patzeria Perfect Pizza,231 W 46th St New York City, NY 10036-1409,40.75953,-73.989847
Danji,346 W 52nd St New York City, NY 10019-6218,40.765926,-73.985443
La Pulperia,371 W 46th St New York City, NY 10036-3969,40.75953,-73.989847
2 Bros Pizza,31 W 46th St New York City, NY 10036-4102,40.75953,-73.989847
Balthazar,80 Spring St New York City, NY 10012-3907,40.725581,-73.998078
Bubbys,120 Hudson St New York City, NY 10013-2317,40.722105,-74.003497
Zero Otto Nove,15 W 21st St New York City, NY 10010-6800,40.739024,-73.983542
OCabanon,245 W 29th St New York City, NY 10001-5208,40.750422,-73.996328
Clinton St. Baking Company & Restaurant,4 Clinton St New York City, NY 10002-1703,40.718758,-73.986427
Mudspot,307 E 9th St New York City, NY 10003-7731,40.730223,-73.988564
Sweet Chick,164 Bedford Ave Brooklyn, NY 11249-1367,40.645099,-73.945032
Bar SixtyFive,30 Rockefeller Plz New York City, NY 10112-0015,40.759287,-73.979808
Adriennes Pizzabar,54 Stone St New York City, NY 10004-2617,40.68863,-74.018244
Dudleys,85 Orchard St New York City, NY 10002-4564,40.718758,-73.986427
The Press Lounge,653 11th Ave New York City, NY 10036-2004,40.75953,-73.989847
Tessa,349 Amsterdam Ave New York City, NY 10024-6900,40.798452,-73.974414
VIV Thai,717 9th Ave New York City, NY 10019-7388,40.765926,-73.985443
Vitae,4 E 46th St New York City, NY 10017,40.752955,-73.973196
Friedmans,132 W 31st St New York City, NY 10001-3406,40.750422,-73.996328
Pepolino,281 W Broadway New York City, NY 10013-2204,40.722105,-74.003497
Ravagh Persian Grill,1135 1st Ave New York City, NY 10065-7738,40.764584,-73.963013
Victors Cafe,236 W 52nd St New York City, NY 10019-5822,40.765926,-73.985443
The Marshal,628 10th Ave New York City, NY 10036-3022,40.75953,-73.989847
Bus Stop,597 Hudson St New York City, NY 10014-1876,40.738088,-74.005095
La Isla Restaurant,104 Washington St Hoboken, NJ 07030-4604,40.746851,-74.033934
Pepe Giallo,195 10th Ave New York City, NY 10001-7014,40.750422,-73.996328
Union Square Cafe,101 E 19th St New York City, NY 10003-3104,40.730223,-73.988564
Aquavit,65 E 55th St New York City, NY 10022-3219,40.758775,-73.967842
Gyu-Kaku Times Square,321 W 44th St New York City, NY 10036-5404,40.75953,-73.989847
Luigis Gourmet Pizza,936 8th Ave New York City, NY 10019-4203,40.765926,-73.985443
Cookshop,156 10th Ave New York City, NY 10011-4758,40.740916,-73.999769
Pokeworks,63 W 37th St New York City, NY 10018-6202,40.755332,-73.993172
Lukes Lobster- The Plaza,1 E 59th St New York City, NY 10022-1013,40.758775,-73.967842
Foxy Johns Bar & Kitchen,143 E 47th St New York City, NY 10017-2007,40.752955,-73.973196
Blue Smoke Battery Park City,255 Vesey St New York City, NY 10282-5800,40.716597,-74.01459
Jackson Hole Burgers,521 3rd Avenue New York City, NY 10016,40.745527,-73.978449
Clarks Restaurant,80 Clark St Brooklyn, NY 11201-2402,40.694481,-73.989319
Mamouns Falafel,119 Macdougal St New York City, NY 10012-1202,40.725581,-73.998078
Churrascaria Plataforma,316 W 49th St New York City, NY 10019-7391,40.765926,-73.985443
Red Farm,529 Hudson St New York City, NY 10014-6125,40.738088,-74.005095
Acqua,21 Peck Slip New York City, NY 10038-1708,40.710223,-74.003368
The Mermaid Inn,570 Amsterdam Ave New York City, NY 10024-2817,40.798452,-73.974414
ABC Kitchen,35 E 18th St New York City, NY 10003-2003,40.730223,-73.988564
Baccarat Hotel Bar,28 W 53rd St New York City, NY 10019-6106,40.765926,-73.985443
The Egg Shop,151 Elizabeth St New York City, NY 10012-4602,40.725581,-73.998078
Jackson Hole Burgers,232 E 64th St New York City, NY 10065,40.764584,-73.963013
The Grand Tier Restaurant,30 Lincoln Center Plaza New York City, NY 10023-6922,40.776765,-73.982213
Ruths Chris Steak House,148 West 51st Street New York City, NY 10019,40.765926,-73.985443
Bread & Butter,213 Park Ave S New York City, NY 10003-1657,40.730223,-73.988564
Remi,145 W 53rd St New York City, NY 10019-6005,40.765926,-73.985443
Bluestone Lane,55 Greenwich Ave New York City, NY 10014-2794,40.738088,-74.005095
Arturos,106 W Houston St New York City, NY 10012-2529,40.725581,-73.998078
Bourbon Street Bar & Grille,346 W 46th St New York City, NY 10036-3881,40.75953,-73.989847
The Meatball Shop,170 Bedford Ave Brooklyn, NY 11249-2906,40.645099,-73.945032
The Landmark Tavern,626 11th Ave New York City, NY 10036-2002,40.75953,-73.989847
Kang ho Dong Baekjeong,1 E 32nd St New York City, NY 10016-5401,40.745527,-73.978449
The Cuban Restaurant and Bar,333 Washington St Hoboken, NJ 07030-4871,40.746851,-74.033934
West Side Steakhouse,597 10th Ave New York City, NY 10036-3016,40.75953,-73.989847
99 Cents Fresh Pizza,1723 Broadway New York City, NY 10019-5214,40.765926,-73.985443
Umi Sushi,303 East 56th Street and 118 East 31st Street New York City, NY 10022,40.758775,-73.967842
Sarges Delicatessen & Diner,548 3rd Ave New York City, NY 10016-3541,40.745527,-73.978449
Il Mulino New York,86 W 3rd St New York City, NY 10012-1095,40.725581,-73.998078
ABA Turkish Restaurant,325 W 57th St New York City, NY 10019-3105,40.765926,-73.985443
Balaboosta,214 Mulberry St New York City, NY 10014-1813,40.738088,-74.005095
Peter Luger Steak House,178 Broadway Brooklyn, NY 11211-6131,40.712597,-73.953098
Num Pang Sandwich Shop,140 E 41st St New York City, NY 10017-5515,40.752955,-73.973196
Crompton Ale House,159WEST W 26th St New York City, NY 10001-6819,40.750422,-73.996328
Felice 15 Gold Street,15 Gold St New York City, NY 10038-4803,40.710223,-74.003368
Fig & Olive Fifth Avenue,10 E 52nd St New York City, NY 10022-5308,40.758775,-73.967842
Avra Estiatorio,141 E 48th St New York City, NY 10017-1223,40.752955,-73.973196
Dean and Deluca,156 W 56th St New York City, NY 10019-3800,40.765926,-73.985443
Zabar Deli & Gourmet Foods,2245 Broadway New York City, NY 10024-5806,40.798452,-73.974414
Prune,54 E 1st St New York City, NY 10003-9313,40.730223,-73.988564
Nocello,257 W 55th St New York City, NY 10019-5232,40.765926,-73.985443
Hometown Bar-B-Que,454 Van Brunt St Brooklyn, NY 11231-1015,40.676521,-74.003322
44 & X,622 10th Ave New York City, NY 10036-3004,40.75953,-73.989847
Brasserie 8 1/2,9 W 57th St New York City, NY 10019-2701,40.765926,-73.985443
Mortons The Steakhouse,551 5th Ave New York City, NY 10017,40.752955,-73.973196
Mighty Quinns Barbeque,103 2nd Ave New York City, NY 10003-8336,40.730223,-73.988564
Vezzo,178 Lexington Ave New York City, NY 10016-7304,40.745527,-73.978449
Great Northern Food,89 E 42nd St New York City, NY 10017-5503,40.752955,-73.973196
Fig & Olive,420 W 13th St New York City, NY 10014-1103,40.738088,-74.005095
9 Ten Restaurant,910 7th Ave New York City, NY 10019-2132,40.765926,-73.985443
Whole Foods Market,1095 Avenue of the Americas New York City, NY 10036-6797,40.75953,-73.989847
Tommy Bahama Restaurant Bar Store,551 5th Ave New York City, NY 10176-0001,40.75557,-73.978877
Black Tap Craft Burgers & Beer,136 W 55th St New York City, NY 10019-5305,40.765926,-73.985443
Ivan Ramen,25 Clinton St New York City, NY 10002-1793,40.718758,-73.986427
Steves Pizza,110 Trinity Pl New York City, NY 10006-1031,40.708834,-74.013168
Seans Bar And Kitchen,42 W 48th St New York City, NY 10036-1701,40.75953,-73.989847
Emmett OLunneys Irish Pub,210 W 50th St New York City, NY 10019-6709,40.765926,-73.985443
Hakkasan,311 W 43rd St New York City, NY 10036-6413,40.75953,-73.989847
Sakagura,211 E 43rd St New York City, NY 10017-4707,40.752955,-73.973196
Roman Nose,125 Newark Ave Jersey City, NJ 07302-2811,40.726001,-74.047304
Felidia,243 E 58th St New York City, NY 10022-1201,40.758775,-73.967842
Delmonicos,56 Beaver St New York City, NY 10004-2436,40.68863,-74.018244
Grazie,26 E 84th St New York City, NY 10028-0426,40.776629,-73.953914
Sparks Steak House,210 E 46th St New York City, NY 10017-2903,40.752955,-73.973196
Mozzarella&Vino,33 W 54th St New York City, NY 10019-5417,40.765926,-73.985443
Naruto Ramen,1596 3rd Ave New York City, NY 10128-3417,40.780989,-73.95158
Natsumi,226 W 50th St New York City, NY 10019-6702,40.765926,-73.985443
Malibu Diner,163 W 23rd St New York City, NY 10011-2465,40.740916,-73.999769
Quantum Leap Natural Food,226 Thompson St New York City, NY 10012-4838,40.725581,-73.998078
Le Bateau Ivre,230 E 51st St New York City, NY 10022-6571,40.758775,-73.967842
Nobu,195 Broadway New York City, NY 10007-3100,40.713941,-74.007401
Murray Hill Diner,222 Lexington Ave New York City, NY 10016-4604,40.745527,-73.978449
Two Tablespoons,230 Park Ave New York City, NY 10169-0005,40.75474,-73.976595
Mustang Harrys,352 7th Ave New York City, NY 10001-5012,40.750422,-73.996328
Morimoto,88 10th Ave New York City, NY 10011-4721,40.740916,-73.999769
Forno Rosso Pizzeria,327 Gold St Brooklyn, NY 11201-3016,40.694481,-73.989319
Trinity Place,115 Broadway New York City, NY 10006-1604,40.708834,-74.013168
Dons Bogam BBQ & Wine Bar,17 E 32nd St New York City, NY 10016-5401,40.745527,-73.978449
Penelope,159 Lexington Ave New York City, NY 10016-8154,40.745527,-73.978449
Kashkaval Garden,852 9th Ave New York City, NY 10019-4452,40.765926,-73.985443
Momofuku Ssam Bar,207 2nd Ave New York City, NY 10003-5797,40.730223,-73.988564
Vaucluse,100 E 63rd St New York City, NY 10065,40.764584,-73.963013
Bareburger,514 3rd Ave New York City, NY 10016-4700,40.745527,-73.978449
Ai Fiori,400 5th Ave New York City, NY 10018-2753,40.755332,-73.993172
Blue Ribbon Sushi Bar & Grill,308 W 58th St New York City, NY 10019-1804,40.765926,-73.985443
Le Coq Rico NYC,30 E 20th St New York City, NY 10003-1310,40.730223,-73.988564
Pi Greek Bakerie,512 Broome St New York City, NY 10013-1608,40.722105,-74.003497
Amma,246 E 51st St New York City, NY 10022-6513,40.758775,-73.967842
LEcole,462 Broadway New York City, NY 10013-2618,40.722105,-74.003497
Zuma,261 Madison Ave New York City, NY 10016-2303,40.745527,-73.978449
Al Di La Trattoria,248 5th Ave Brooklyn, NY 11215-1201,40.664322,-73.984132
Carve Unique Sandwiches,760 8th Ave New York City, NY 10036-1411,40.75953,-73.989847
Motorino,349 E 12th St New York City, NY 10003-7212,40.730223,-73.988564
Beer Culture,328 W 45th St New York City, NY 10036-3891,40.75953,-73.989847
Benjamin Steakhouse,52 E 41st St New York City, NY 10017-6211,40.752955,-73.973196
Totto Ramen,366 W 52nd St New York City, NY 10019-6200,40.765926,-73.985443
Nirvana,346 Lexington Ave New York City, NY 10016-0938,40.745527,-73.978449
Five Guys,252 W 42nd St New York City, NY 10036-7202,40.75953,-73.989847
Tribecas Kitchen,200 Church St New York City, NY 10013-3831,40.722105,-74.003497
Little Italy Pizza,333 5th Ave New York City, NY 10016-5005,40.745527,-73.978449
Riverpark,450 E 29th St New York City, NY 10016-8367,40.745527,-73.978449
Pio Pio 6,702 Amsterdam Ave New York City, NY 10025-6903,40.798664,-73.967778
Ristorante Morini,1167 Madison Ave New York City, NY 10028-0409,40.776629,-73.953914
Birdland,315 W 44th St New York City, NY 10036-5402,40.75953,-73.989847
Paolas Restaurant,Madison Avenue New York City, NY 10128,40.780989,-73.95158
Cock & Bull,23 W 45th St New York City, NY 10036-4900,40.75953,-73.989847
Toasties,148 W 49th St New York City, NY 10019-6828,40.765926,-73.985443
Olea,171 Lafayette Ave Brooklyn, NY 11238-1019,40.680593,-73.963928
Bareburger,535 Laguardia Pl New York City, NY 10012-1402,40.725581,-73.998078
Excellent Dumpling House,111 Lafayette St New York City, NY 10013-4105,40.722105,-74.003497
Tasty Hand Pulled Noodles,1 Doyers St New York City, NY 10013-5150,40.722105,-74.003497
Osteria Morini Manhattan,218 Lafayette St New York City, NY 10012-4021,40.725581,-73.998078
The Top of The Standard,848 Washington St New York City, NY 10014-1308,40.738088,-74.005095
Five Guys,43 W 55th St New York City, NY 10019-4902,40.765926,-73.985443
Molyvos,871 7th Ave New York City, NY 10019-3923,40.765926,-73.985443
Saju Bistro,120 W 44th St New York City, NY 10036-4050,40.75953,-73.989847
Burger & Lobster,132 W 43rd St New York City, NY 10036-6503,40.75953,-73.989847
Maison Harlem,341 Saint Nicholas Ave New York City, NY 10027-7602,40.812242,-73.9532
An’nam,234 W 48th St New York City, NY 10036-1540,40.75953,-73.989847
Lukes Lobster- Brooklyn Bridge Park,11 Water St Brooklyn, NY 11201-1332,40.694481,-73.989319
Le Parisien,163 E 33rd St New York City, NY 10016-4644,40.745527,-73.978449
Friedmans,228 W 47th St New York City, NY 10036-1401,40.75953,-73.989847
Pio Pio 8,604 10th Ave New York City, NY 10036-3007,40.75953,-73.989847
The Meatball Shop,64 Greenwich Ave New York City, NY 10011-8307,40.740916,-73.999769
Lukes Lobster Upper West Side,426 Amsterdam Ave New York City, NY 10024-5846,40.798452,-73.974414
Joe Allen,326 W 46th St New York City, NY 10036-3801,40.75953,-73.989847
Pret A Manger,135 W 50th St New York City, NY 10020-1201,40.758236,-73.978833
Shake Shack,49 Grand Central Terminal New York City, NY 10017-5622,40.752955,-73.973196
Porter House,10 Columbus Cir Ste 4 New York City, NY 10019-1210,40.765926,-73.985443
Mari Vanna,41 E 20th St New York City, NY 10003-1324,40.730223,-73.988564
Sandwicherie,202 E 42nd St New York City, NY 10017-5808,40.752955,-73.973196
Katzs Deli,205 E Houston Street New York City, NY 10002-1098,40.718758,-73.986427
ABC Cocina,38 E 19th St New York City, NY 10003,40.730223,-73.988564
Johns Coffee Shop,823 2nd Ave New York City, NY 10017-4501,40.752955,-73.973196
Rubys,219 Mulberry St New York City, NY 10012-5735,40.725581,-73.998078
The Paris Cafe,119 South St New York City, NY 10038-2014,40.710223,-74.003368
Quality Meats,57 W 58th St New York City, NY 10019-1630,40.765926,-73.985443
Samba Kitchen,661 9th Ave New York City, NY 10036-3659,40.75953,-73.989847
Carraghers Pub & Restaurant,228 W 39th St New York City, NY 10018-4508,40.755332,-73.993172
Fresh and Co.,45 W 57th St New York City, NY 10019-3408,40.765926,-73.985443
Knickerbocker Bar & Grill,33 University Pl New York City, NY 10003-4512,40.730223,-73.988564
Aretskys Patroon,160 E 46th St New York City, NY 10017-2632,40.752955,-73.973196
BLT Prime,111 E 22nd St New York City, NY 10010-5400,40.739024,-73.983542
The Meatball Shop,200 9th Ave New York City, NY 10011-4922,40.740916,-73.999769
ilili,236 5th Ave New York City, NY 10001-7606,40.750422,-73.996328
Boqueria,171 Spring St New York City, NY 10012-3843,40.725581,-73.998078
Johnys Luncheonette,124 W 25th St New York City, NY 10001-7421,40.750422,-73.996328
The Grey Dog,242 W 16th St New York City, NY 10011-6110,40.740916,-73.999769
Blue Smoke Flatiron,116 E 27th St New York City, NY 10016-8942,40.745527,-73.978449
Shake Shack,1 Old Fulton St Brooklyn, NY 11201-1307,40.694481,-73.989319
The Dining Room,1000 5th Ave New York City, NY 10028,40.776629,-73.953914
Ear Inn,326 Spring St New York City, NY 10013-1322,40.722105,-74.003497
Shake Shack,215 Murray St New York City, NY 10282-5651,40.716597,-74.01459
Saxon and Parole,316 Bowery New York City, NY 10012-2802,40.725581,-73.998078
P.J. Clarkes,915 3rd Ave New York City, NY 10022-3767,40.758775,-73.967842
Cafe Luxembourg,200 W 70th St New York City, NY 10023-4323,40.776765,-73.982213
Yakitori Totto,251 W 55th St New York City, NY 10019-5202,40.765926,-73.985443
Toloache,251 W 50th St New York City, NY 10019-6701,40.765926,-73.985443
Pret A Manger,857 Broadway New York City, NY 10003-1225,40.730223,-73.988564
Shanghai Asian Cuisine,14A Elizabeth St New York City, NY 10013-4802,40.722105,-74.003497
Candle Cafe,1307 3rd Ave New York City, NY 10021-3301,40.768823,-73.960257
The Kati Roll Company,49 W 39th St New York City, NY 10018-3887,40.755332,-73.993172
Lighthorse Tavern,199 Washington St Jersey City, NJ 07302-4527,40.726001,-74.047304
Barbuto,775 Washington St New York City, NY 10014-1748,40.738088,-74.005095
Havana NY,58 W 38th St New York City, NY 10018-6203,40.755332,-73.993172
Trattoria Spaghetto,228 Bleecker St # 232 New York City, NY 10014-4420,40.738088,-74.005095
2 Bros Pizza,557 8th Ave New York City, NY 10018-4300,40.755332,-73.993172
Rossinis Restaurant,108 E 38th St New York City, NY 10016-2648,40.745527,-73.978449
Souvlaki Gr,162 W 56th St New York City, NY 10019-3831,40.765926,-73.985443
Davios Northern Italian Steakhouse,447 Lexington Ave New York City, NY 10017-3908,40.752955,-73.973196
Cielo at the Mayfair,242 W 49th St New York City, NY 10019-7405,40.765926,-73.985443
Scottys Diner,336 Lexington Ave New York City, NY 10016-0936,40.745527,-73.978449
Pret A Manger,825 8th Ave New York City, NY 10019-7416,40.765926,-73.985443
Marta,29 E 29th St New York City, NY 10016-7902,40.745527,-73.978449
Cipriani,55 Wall St New York City, NY 10005-2805,40.706903,-74.008654
Cowgirl Seahorse,259 Front St New York City, NY 10038-1716,40.710223,-74.003368
Shake Shack,1333 Broadway New York City, NY 10018-7204,40.755332,-73.993172
City Sandwich,649 9th Ave New York City, NY 10036-3631,40.75953,-73.989847
Bocca di Bacco,828 9th Ave New York City, NY 10019-5587,40.765926,-73.985443
Central Market,89 E 42nd St New York City, NY 10017-5503,40.752955,-73.973196
Margherita NYCe,197 Grand St New York City, NY 10013-3790,40.722105,-74.003497
Anejo Tequileria,668 10th Ave. at 47th St. New York City, NY,40.68863,-74.018244
Armani Ristorante,717 5th Ave New York City, NY 10022-8101,40.758775,-73.967842
Dean & Deluca,1150 Madison Ave New York City, NY 10028-0410,40.776629,-73.953914
Tacombi - Nolita,267 Elizabeth St New York City, NY 10012-3530,40.725581,-73.998078
2 Bros Pizza,542 9th Ave New York City, NY 10018-1302,40.755332,-73.993172
Rosemarys,18 Greenwich Ave New York City, NY 10011-8307,40.740916,-73.999769
Pies-N-Thighs,166 S 4th St Brooklyn, NY 11211-5376,40.712597,-73.953098
Lupa Osteria Romana,170 Thompson St New York City, NY 10012,40.725581,-73.998078
New York Luncheonette,135 E 50th St New York City, NY 10022-7504,40.758775,-73.967842
Don Antonio,309 W 50th St New York City, NY 10019-6607,40.765926,-73.985443
Ariana Afghan Kabab Restaurant,787 9th Ave New York City, NY 10019-5621,40.765926,-73.985443
Calle Ocho,45 W 81st St New York City, NY 10024-6025,40.798452,-73.974414
The Smith,55 3rd Ave New York City, NY 10003-5535,40.730223,-73.988564
The Palm West Side,250 W 50th St New York City, NY 10019-6743,40.765926,-73.985443
Valbella,421 W 13th St New York City, NY 10014-1104,40.738088,-74.005095
Rotisserie Georgette,14 E 60th St New York City, NY 10022-1006,40.758775,-73.967842
Fresh and Co.,363 7th Ave New York City, NY 10001-3904,40.750422,-73.996328
North Square,103 Waverly Pl New York City, NY 10011-9110,40.740916,-73.999769
La Esquina,114 Kenmare St New York City, NY 10012-4076,40.725581,-73.998078
ViceVersa,325 W 51st St New York City, NY 10019-6424,40.765926,-73.985443
The Counter,7 Times Sq New York City, NY 10036-6524,40.75953,-73.989847
Estela,47 E Houston St New York City, NY 10012-2749,40.725581,-73.998078
Il Brigante,214 Front St New York City, NY 10038-2034,40.710223,-74.003368
Aurora,70 Grand St Brooklyn, NY 11249-4111,40.645099,-73.945032
Freemans Restaurant,191 Chrystie St New York City, NY 10002-1261,40.718758,-73.986427
Emporium Brasil,15 W 46th St New York City, NY 10036-4117,40.75953,-73.989847
Friedmans Lunch,75 9th Ave New York City, NY 10011-7006,40.740916,-73.999769
Harrys Cafe & Steak,1 Hanover Sq New York City, NY 10004-2601,40.68863,-74.018244
Niles Bar & Restaurant,371 7th Ave New York City, NY 10001-3984,40.750422,-73.996328
Trattoria DellArte,900 7th Ave New York City, NY 10106-0200,40.765243,-73.980438
Pret A Manger,30 Rockefeller Plz New York City, NY 10112-0015,40.759287,-73.979808
Mighty Quinns Barbeque,75 Greenwich Ave New York City, NY 10014,40.738088,-74.005095
The Keg Room,West 36th Street New York City, NY 10018,40.755332,-73.993172
Fat Cat,75 Christopher St New York City, NY 10014-4236,40.738088,-74.005095
TAO Downtown,92 9th Ave New York City, NY 10011-5020,40.740916,-73.999769
Kung Fu Little Steamed Buns Ramen,811 8th Ave New York City, NY 10019-7418,40.765926,-73.985443
Table 87 Coal Oven Pizza,87 Atlantic Ave Brooklyn, NY 11201-5503,40.694481,-73.989319
Villa Berulia,107 E 34th St New York City, NY 10016-4601,40.745527,-73.978449
Razza Pizza Artigianale,275 Grove St Jersey City, NJ 07302-3601,40.726001,-74.047304
The Clam,420 Hudson St New York City, NY 10014-3932,40.738088,-74.005095
Juliette,135 N 5th St Brooklyn, NY 11249-3214,40.645099,-73.945032
Parker & Quinn,63 W 39th St New York City, NY 10018-3801,40.755332,-73.993172
City Diner,31 Montgomery St Jersey City, NJ 07302-3869,40.726001,-74.047304
Traif,229 S 4th St Brooklyn, NY 11211-5605,40.712597,-73.953098
Ipanema Restaurant,43 W 46th St New York City, NY 10036-4121,40.75953,-73.989847
Bistango at the Kimberly Hotel,145 E 50th St New York City, NY 10022-9502,40.758775,-73.967842
Strip House,13 East 12th Street New York City, NY 10003,40.730223,-73.988564
Artichoke Basilles Pizza,114 10th Ave New York City, NY 10011-4704,40.740916,-73.999769
Pershing Square,90 E 42nd St New York City, NY 10017-5409,40.752955,-73.973196
The Roxy Lounge,2 Avenue of the Americas New York City, NY 10013-2401,40.722105,-74.003497
Shanghai Asian Manor,21 Mott St New York City, NY 10013-5032,40.722105,-74.003497
Metro Diner,2641 Broadway Frnt 1 New York City, NY 10025-5043,40.798664,-73.967778
The Milling Room,446 Columbus Ave New York City, NY 10024-5130,40.798452,-73.974414
Shake Shack,154 E 86th St New York City, NY 10028-2107,40.776629,-73.953914
Bread & Butter Market,419 Park Ave S New York City, NY 10016-8410,40.745527,-73.978449
Mariella Pizza,935 8th Ave New York City, NY 10019-4256,40.765926,-73.985443
Boqueria,53 W 19th St New York City, NY 10011-4202,40.740916,-73.999769
Spyglass,47 W 38th St New York City, NY 10018-5501,40.755332,-73.993172
Gaonnuri,1250 Broadway New York City, NY 10001-3701,40.750422,-73.996328
Mables Smokehouse & Banquet Hall,44 Berry Street Brooklyn, NY 11249,40.645099,-73.945032
BXL Cafe,125 W 43rd St New York City, NY 10036-6505,40.75953,-73.989847
The Malt House,9 Maiden Ln New York City, NY 10038-4028,40.710223,-74.003368
The Harold,1271 Broadway New York City, NY 10001-3508,40.750422,-73.996328
The Skylark,200 W 39th St Fl 30 New York City, NY 10018-8242,40.755332,-73.993172
Cupping Room Cafe,359 W Broadway New York City, NY 10013-2209,40.722105,-74.003497
Cornelia Street Cafe,29 Cornelia St New York City, NY 10014-4127,40.738088,-74.005095
Tao,42 E 58th St New York City, NY 10022-1910,40.758775,-73.967842
The House of Brews,302 W 51st St New York City, NY 10019-6436,40.765926,-73.985443
Trading Post,170 John St New York City, NY 10038-3505,40.710223,-74.003368
Raines Law Room,48 W 17th St New York City, NY 10011-5707,40.740916,-73.999769
Thai Select,472 9th Ave New York City, NY 10018-5616,40.755332,-73.993172
Antica Pesa,115 Berry St Brooklyn, NY 11249-2804,40.645099,-73.945032
Jane,100 W Houston St New York City, NY 10012-2547,40.725581,-73.998078
Le Rivage,340 W 46th St New York City, NY 10036-3928,40.75953,-73.989847
Shake Shack Theater District,691 8th Ave New York City, NY 10036-7107,40.75953,-73.989847
Manhattan Diner,2532 Broadway New York City, NY 10025-6957,40.798664,-73.967778
Marys Fish Camp,64 Charles St New York City, NY 10014-2626,40.738088,-74.005095
The Odeon,145 W Broadway New York City, NY 10013-3373,40.722105,-74.003497
Shake Shack,409 Fulton St Brooklyn, NY 11201-5103,40.694481,-73.989319
Wollenskys Grill,201 E 49th St New York City, NY 10017-1501,40.752955,-73.973196
Isadoras Cafe,16 E 52nd St New York City, NY 10022-5306,40.758775,-73.967842
Lincoln Ristorante,142 W 65th St New York City, NY 10023-6903,40.776765,-73.982213
Chez Josephine,414 W 42nd St New York City, NY 10036-6806,40.75953,-73.989847
Morandi,211 Waverly Pl New York City, NY 10014-2737,40.738088,-74.005095
Tinys & The Bar Upstairs,135 W Broadway New York City, NY 10013-3305,40.722105,-74.003497
Trader Joe,142 E 14th St New York City, NY 10003-4170,40.730223,-73.988564
Pret A Manger,1020 Avenue of the Americas New York City, NY 10018-5458,40.755332,-73.993172
Koi,40 W 40th St New York City, NY 10018-2602,40.755332,-73.993172
Pastrami Queen,1125 Lexington Ave New York City, NY 10075-0429,40.773357,-73.956208
Juniors Restaurant & Cheesecake,1515 Broadway New York City, NY 10036-8901,40.75953,-73.989847
Little Park,85 W Broadway New York City, NY 10007-1045,40.713941,-74.007401
Almond,12 E 22nd St New York City, NY 10010-6111,40.739024,-73.983542
limani,45 Rockefeller Plz New York City, NY 10111-0100,40.759224,-73.977762
Gelso & Grand,186 Grand St New York City, NY 10013-3712,40.722105,-74.003497
Tonys Di Napoli - Upper East Side,1081 3rd Ave New York City, NY 10065-7438,40.764584,-73.963013
Black Barn,19 E 26th St New York City, NY 10010-1450,40.739024,-73.983542
Maysville,17 W 26th St New York City, NY 10010-1003,40.739024,-73.983542
Freds,476 Amsterdam Ave New York City, NY 10024-5002,40.798452,-73.974414
Rosa Mexicano - First Avenue,1063 1st Avenue at 58th St New York City, NY 10022,40.758775,-73.967842
Brazil Brazil,328 W 46th St New York City, NY 10036-8390,40.75953,-73.989847
The Smith,956 2nd Ave New York City, NY 10022-7805,40.758775,-73.967842
Untitled at the Whitney,99 Gansevoort St New York City, NY 10014-1404,40.738088,-74.005095
Xian Famous Foods,24 W 45th St New York City, NY 10036-4205,40.75953,-73.989847
Lexington Candy Shop,1226 Lexington Ave New York City, NY 10028-1406,40.776629,-73.953914
The Three Monkeys,236 W 54th St New York City, NY 10019-5502,40.765926,-73.985443
Llama Inn,50 Withers St Brooklyn, NY 11211-1214,40.712597,-73.953098
Foleys Pub & Restaurant,18 W 33rd St New York City, NY 10001-3300,40.750422,-73.996328
The Loeb Boathouse at Central Park,East 72nd St & Park Dr North New York City, NY 10021,40.768823,-73.960257
Salumeria Rosi,283 Amsterdam Ave New York City, NY 10023-2103,40.776765,-73.982213
Il Buco Alimentari & Vineria,53 Great Jones St New York City, NY 10012-1118,40.725581,-73.998078
Tir na Nog,254 W 31st St New York City, NY 10001-2813,40.750422,-73.996328
West Bank Cafe,407 W 42nd St New York City, NY 10036-6808,40.75953,-73.989847
Johns of Times Square,260 W 44th St New York City, NY 10036-3900,40.75953,-73.989847
Dekalb Market Hall,445 Albee Square West Brooklyn, NY 11201-5177,40.694481,-73.989319
Coppolas Pizzeria Restaurant,206 W 79th St New York City, NY 10024-6235,40.798452,-73.974414
Marseille,630 9th Ave New York City, NY 10036-3708,40.75953,-73.989847
La Contenta,102 Norfolk St New York City, NY 10002-3310,40.718758,-73.986427
Bathtub Gin,136 9th Ave New York City, NY 10011-4949,40.740916,-73.999769
DB Bistro Moderne,55 W 44th St New York City, NY 10036-6609,40.75953,-73.989847
Minetta Tavern,113 Macdougal St New York City, NY 10012-1201,40.725581,-73.998078
Liberty House Restaurant,76 Audrey Zapp Dr Jersey City, NJ 07305-4127,40.696661,-74.081135
OReillys Bar & Kitchen,21 W 35th St New York City, NY 10001-2200,40.750422,-73.996328
Waldys Wood Fired Pizza & Penne,800 Sixth Avenue New York City, NY 10001-6345,40.750422,-73.996328
R Lounge at Two Times Square,2 Times Sq New York City, NY 10036-7301,40.75953,-73.989847
Marcony,184 Lexington Ave New York City, NY 10016-6839,40.745527,-73.978449
Friedmans,450 10th Ave New York City, NY 10018-1107,40.755332,-73.993172
Fette Sau,354 Metropolitan Ave Brooklyn, NY 11211-3308,40.712597,-73.953098
New York Beer Company,321 W 44th St New York City, NY 10036-5404,40.75953,-73.989847
Smac,197 1st Ave New York City, NY 10003-2908,40.730223,-73.988564
Benito One,174 Mulberry St New York City, NY 10013-3759,40.722105,-74.003497
Norma,438 3rd Ave New York City, NY 10016-6040,40.745527,-73.978449
Tender Restaurant,130 W 47th St New York City, NY 10036-1501,40.75953,-73.989847
The Rum House,228 W 47th St New York City, NY 10036-1401,40.75953,-73.989847
The Ginger Man,11 E 36th St New York City, NY 10016-3318,40.745527,-73.978449
Dinosaur Bar-B-Que,604 Union St Brooklyn, NY 11215,40.664322,-73.984132
Jacks Wife Freda,50 Carmine St New York City, NY 10014-6917,40.738088,-74.005095
The Crooked Knife,29 E 30th St New York City, NY 10016-7313,40.745527,-73.978449
Room Service,690 9th Ave New York City, NY 10036-3665,40.75953,-73.989847
I Sodi,105 Christopher St New York City, NY 10014-4213,40.738088,-74.005095
Five Guys,316 W 34th St New York City, NY 10001-2401,40.750422,-73.996328
Claudette,24 5th Ave New York City, NY 10011-8858,40.740916,-73.999769
5 Napkin Burger,2315 Broadway New York City, NY 10024,40.798452,-73.974414
Da Claudio,21 Ann St New York City, NY 10038-2405,40.710223,-74.003368
Foragers,233 8th Ave New York City, NY 10011-1606,40.740916,-73.999769
Bond 45 Italian Kitchen & Bar,221 West 46th Street New York City, NY 10036-1409,40.75953,-73.989847
Pampano New York,209 E 49th St New York City, NY 10017-1501,40.752955,-73.973196
Battello,502 Washington Blvd Jersey City, NJ 07310-1608,40.732728,-74.037168
Noodle Pudding,38 Henry St Brooklyn, NY 11201-1338,40.694481,-73.989319
Nougatine at Jean Georges,1 Central Park W New York City, NY 10023-7703,40.776765,-73.982213
Bubbys High Line,71 Gansevoort St New York City, NY 10014-1411,40.738088,-74.005095
OLunneys,145 W 45th St New York City, NY 10036-4008,40.75953,-73.989847
Bea,403 W 43rd St New York City, NY 10036-5330,40.75953,-73.989847
Fogo de Chao Brazilian Steakhouse,40 W 53rd St New York City, NY 10019-6106,40.765926,-73.985443
Rocking Horse Cafe,182 8th Ave New York City, NY 10011-1604,40.740916,-73.999769
North End Grill,104 N End Ave New York City, NY 10282-1236,40.716597,-74.01459
Temple Court,5 Beekman St New York City, NY 10038-2206,40.710223,-74.003368
Refinery Rooftop,63 W 38th St New York City, NY 10018-3818,40.755332,-73.993172
Bocado Wine Bar & Restaurant,1293 Lexington Ave New York City, NY 10128-1110,40.780989,-73.95158
Turkish Kitchen,386 3rd Ave New York City, NY 10016-9007,40.745527,-73.978449
Sticky Rice,85 Orchard St New York City, NY 10002-4564,40.718758,-73.986427
Smoke Jazz Club,2751 Broadway New York City, NY 10025-2803,40.798664,-73.967778
Red Rooster Harlem,310 Lenox Avenue New York City, NY 10027-4449,40.812242,-73.9532
Bar Bacon,836 9th Ave New York City, NY 10019-5554,40.765926,-73.985443
Osteria al Doge,142 W 44th St New York City, NY 10036-4013,40.75953,-73.989847
Fraunces Tavern Restaurant,54 Pearl St New York City, NY 10004-4300,40.68863,-74.018244
Park Avenue Autumn/Winter/Spring/Summer,360 Park Ave S New York City, NY 10010-1710,40.739024,-73.983542
Gigino Trattoria,323 Greenwich St New York City, NY 10013-3341,40.722105,-74.003497
Tir na Nog,315 W 39th St New York City, NY 10018-1412,40.755332,-73.993172
Egg,135 N 5th St Brooklyn, NY 11249-3214,40.645099,-73.945032
French Louie,320 Atlantic Ave Brooklyn, NY 11201-5860,40.694481,-73.989319
Morrell Wine Bar & Cafe,1 Rockefeller Plz New York City, NY 10020-2003,40.758236,-73.978833
Hunt & Fish Club,125 W 44th St New York City, NY 10036-4012,40.75953,-73.989847
P.S. Kitchen,246 W 48th St New York City, NY 10036-1424,40.75953,-73.989847
Shake Shack,170 Flatbush Ave Brooklyn, NY 11217-2019,40.684948,-73.980613
Benny Tudinos,622 Washington St Hoboken, NJ 07030-4908,40.746851,-74.033934
Frankies Spuntino 457,457 Court St Brooklyn, NY 11231-4010,40.676521,-74.003322
Comfort Diner,214 E 45th St New York City, NY 10017-3302,40.752955,-73.973196
Basta Pasta,37 W 17th St New York City, NY 10011-5503,40.740916,-73.999769
The Grey Dog,90 University Pl New York City, NY 10003-4665,40.730223,-73.988564
Casa Lever,390 Park Ave New York City, NY 10022-4608,40.758775,-73.967842
Bull & Bear Steakhouse,570 Lexington Ave New York City, NY 10022-6837,40.758775,-73.967842
Food Emporium,810 8th Ave New York City, NY 10019-7410,40.765926,-73.985443
Broome Street Bar,363 W Broadway New York City, NY 10013-2209,40.722105,-74.003497
Apotheke,9 Doyers St New York City, NY 10013-5117,40.722105,-74.003497
dellanima,38 8th Ave New York City, NY 10014-1803,40.738088,-74.005095
Cafe Cluny,284 W 12th St New York City, NY 10014-6005,40.738088,-74.005095
Risotteria Melotti NYC,309 E 5th St New York City, NY 10003-8825,40.730223,-73.988564
Jams Restaurant,1414 Avenue of the Americas New York City, NY 10019-2514,40.765926,-73.985443
Clement at The Peninsula New York,700 Fifth Avenue at 55th Street New York City, NY 10019,40.765926,-73.985443
Hundred Acres,38 Macdougal St New York City, NY 10012-2940,40.725581,-73.998078
Il Buco,47 Bond St New York City, NY 10012-2450,40.725581,-73.998078
Main Noodle House,1011 Avenue of the Americas New York City, NY 10018-5516,40.755332,-73.993172
Le Gigot,18 Cornelia St New York City, NY 10014-4138,40.738088,-74.005095
Kodama Sushi,301 W 45th St New York City, NY 10036-3822,40.75953,-73.989847
Locanda Verde,377 Greenwich St New York City, NY 10013-2338,40.722105,-74.003497
Aureole,135 W 42nd St New York City, NY 10036-6509,40.75953,-73.989847
Old Town Bar,45 E 18th St New York City, NY 10003-2003,40.730223,-73.988564
Barbounia,250 Park Ave S New York City, NY 10003-1402,40.730223,-73.988564
Virgils Real BBQ - Time Square,152 W 44th St New York City, NY 10036,40.75953,-73.989847
Charlie Palmer Steak,47 West 38th Street New York City, NY 10018,40.755332,-73.993172
Shake Shack,366 Columbus Ave New York City, NY 10024-5109,40.798452,-73.974414
Quality Italian,57 W 57th St New York City, NY 10019-2802,40.765926,-73.985443
MarkJoseph Steakhouse,261 Water St New York City, NY 10038-1714,40.710223,-74.003368
Famous Amadeus Pizza,840 8th Ave New York City, NY 10019-6647,40.765926,-73.985443
Casa Mono,52 Irving Pl New York City, NY 10003,40.730223,-73.988564
McHales Bar & Grill,251 W 51st St New York City, NY 10019-6261,40.765926,-73.985443
Joseph Leonard,170 Waverly Pl New York City, NY 10014-3845,40.738088,-74.005095
Maloney & Porcelli,37 E 50th St New York City, NY 10022-6820,40.758775,-73.967842
Westville,210 W 10th St New York City, NY 10014-6411,40.738088,-74.005095
Melt Shop,135 W 50th St New York City, NY 10020,40.758236,-73.978833
Peasant,194 Elizabeth St New York City, NY 10012-4255,40.725581,-73.998078
Rana,Chelsea Piers New York City, NY 10011-1015,40.740916,-73.999769
Souvlaki GR,116 Stanton St New York City, NY 10002-1500,40.718758,-73.986427
Mollys Pub & Restaurant,287 3rd Ave New York City, NY 10010-5503,40.739024,-73.983542
Dicksons Farmstand Meats,Chelsea Piers New York City, NY 10011-1015,40.740916,-73.999769
Banc Cafe,431 3rd Ave New York City, NY 10016-6026,40.745527,-73.978449
5 Napkin Burger,150 E 14th St New York City, NY 10003,40.730223,-73.988564
Havana Central Times Square,151 W 46th St New York City, NY 10036-8512,40.75953,-73.989847
Pongsri Thai Restaurant,244 W 48th St New York City, NY 10036-5603,40.75953,-73.989847
Pazza Notte,1375 Avenue of the Americas New York City, NY 10019-3811,40.765926,-73.985443
CHO DANG GOL,55 W 35th St New York City, NY 10001-2219,40.750422,-73.996328
Gotham West Market,600 11th Ave New York City, NY 10036-2102,40.75953,-73.989847
Asiate,80 Columbus Cir New York City, NY 10023-5800,40.776765,-73.982213
Tasty Cafe,126 Madison Ave Frnt 2 New York City, NY 10016-7040,40.745527,-73.978449
Hama Japanese Cuisine,11 W 51st St New York City, NY 10019-6994,40.765926,-73.985443
Black Tap Craft Burgers & Beer,248 W 14th St New York City, NY 10011-7243,40.740916,-73.999769
Community Food & Juice,2893 Broadway New York City, NY 10025-7820,40.798664,-73.967778
Good Enough to Eat,520 Columbus Ave New York City, NY 10024-3404,40.798452,-73.974414
Russian Vodka Room,265 W 52nd St New York City, NY 10019-5803,40.765926,-73.985443
Cafe Gitane,242 Mott St New York City, NY 10012-3434,40.725581,-73.998078
Ellens Stardust Diner,1650 Broadway New York City, NY 10019-6833,40.765926,-73.985443
Le Bilboquet,20 E 60th St New York City, NY 10022-1011,40.758775,-73.967842
The Sea Grill,19 W 49th St New York City, NY 10020-2206,40.758236,-73.978833
Agern,89 E 42nd St New York City, NY 10017-5503,40.752955,-73.973196
Johnny Rockets Diner,930 3rd Ave New York City, NY 10022-3601,40.758775,-73.967842
Lattanzi Ristorante,361 W 46th St New York City, NY 10036-3805,40.75953,-73.989847
My Pie Pizzeria Romana,696 Lexington Ave New York City, NY 10022-2608,40.758775,-73.967842
Totto Ramen Next Door,52nd St Btn 8th and 9th New York City, NY,40.68863,-74.018244
El Parador Cafe,325 E 34th St New York City, NY 10016-4928,40.745527,-73.978449
Antique Garage,41 Mercer St New York City, NY 10013-2617,40.722105,-74.003497
Remedy Diner,245 E Houston St New York City, NY 10002-1013,40.718758,-73.986427
Fanelli Cafe,94 Prince St New York City, NY 10012-3993,40.725581,-73.998078
Harlem Shake,100 W 124th St New York City, NY 10027-4971,40.812242,-73.9532
Porto Leggero,Harborside Financial Center - Plaza 5 Jersey City, NJ 07311,40.720216,-74.032724
The Stagecoach Tavern,834 7th Ave New York City, NY 10019-5811,40.765926,-73.985443
Eataly Downtown,101 Liberty St New York City, NY 10006-1403,40.708834,-74.013168
Cafe Fiorello,1900 Broadway New York City, NY 10023-7004,40.776765,-73.982213
Whole Foods Market,95 E Houston St New York City, NY 10002-1002,40.718758,-73.986427
Very Fresh Noodles,425 W 15th St New York City, NY 10011-7098,40.740916,-73.999769
Vanessas Dumpling House,118 Eldridge St New York City, NY 10002-4418,40.718758,-73.986427
Strip House,15 West 44th Street New York City, NY 10036,40.75953,-73.989847
Rosa Mexicano - Lincoln Center,61 Columbus Ave New York City, NY 10023-6901,40.776765,-73.982213
The Smith,1900 Broadway New York City, NY 10023-7004,40.776765,-73.982213
Speedy Deli,1271 Broadway Frnt 1 New York City, NY 10001-3508,40.750422,-73.996328
Park Avenue Tavern,99 Park Ave New York City, NY 10016-1601,40.745527,-73.978449
Amarone NY,686 9th Ave New York City, NY 10036,40.75953,-73.989847
Giano,126 E 7th St New York City, NY 10009-6128,40.72775,-73.980396
Sushi Nakazawa,23 Commerce St New York City, NY 10014-3763,40.738088,-74.005095
Le Pain Quotidien,922 7th Ave New York City, NY 10019-1555,40.765926,-73.985443
Little Italy Pizza,2 E 33rd St New York City, NY 10016-5003,40.745527,-73.978449
Amy Ruths Home Style Southern Cuisine,113 W 116th St New York City, NY 10026-2521,40.802918,-73.953107
Maria Pia,319 W 51st St New York City, NY 10019-6441,40.765926,-73.985443
Fresco by Scotto,34 E 52nd St New York City, NY 10022-5914,40.758775,-73.967842
The Fat Radish,17 Orchard St New York City, NY 10002-6164,40.718758,-73.986427
Kiki’s,130 Division St New York City, NY 10002-6104,40.718758,-73.986427
Uva,1486 2nd Ave New York City, NY 10075-1399,40.773357,-73.956208
Tavola,488 9th Ave New York City, NY 10018-4128,40.755332,-73.993172
Hu Kitchen,78 Fifth Avenue New York City, NY 10028-2167,40.776629,-73.953914
Sylvias Restaurant,328 Malcolm X Blvd New York City, NY 10027-3702,40.812242,-73.9532
The Clocktower,5 Madison Ave New York City, NY 10010-3678,40.739024,-73.983542
Trademark Taste + Grind,38 W 36th St New York City, NY 10018,40.755332,-73.993172
burger joint,119 W 56th St New York City, NY 10019-4000,40.765926,-73.985443
Brooklyn Diner,212 W 57th St New York City, NY 10019-3200,40.765926,-73.985443
Blooms Cafe,350 Lexington Ave New York City, NY 10016-1723,40.745527,-73.978449
Uncle Boons,7 Spring St New York City, NY 10012-4224,40.725581,-73.998078
44 1/2,626 10th Ave New York City, NY 10036-3036,40.75953,-73.989847
The Irish Pub,837 7th Ave New York City, NY 10019-6001,40.765926,-73.985443
Il Cortile Restaurant,125 Mulberry St New York City, NY 10013,40.722105,-74.003497
The Stanton Social,99 Stanton St New York City, NY 10002-1405,40.718758,-73.986427
Obao,647 9th Ave New York City, NY 10036-3661,40.75953,-73.989847
Bistro Milano,1350 Avenue of the Americas New York City, NY 10019-4702,40.765926,-73.985443
Monkey Bar,60 E 54th St New York City, NY 10022-4612,40.758775,-73.967842
Azalea Ristorante,224 W 51st St New York City, NY 10019-6202,40.765926,-73.985443
Five Leaves,18 Bedford Ave Brooklyn, NY 11222-3102,40.728388,-73.945754
Pret,62 W 45th St New York City, NY 10036-4208,40.75953,-73.989847
Connollys Pub & Restaurant,121 W 45th St New York City, NY 10036,40.75953,-73.989847
Bodrum Mediterranean Restaurant,584 Amsterdam Ave New York City, NY 10024-2302,40.798452,-73.974414
Crif Dogs,113 Saint Marks Pl New York City, NY 10009-5161,40.72775,-73.980396
Big Daddys,239 Park Ave S New York City, NY 10003-1403,40.730223,-73.988564
Pod 39,145 E 39th St New York City, NY 10016-0913,40.745527,-73.978449
GMT Tavern,142 Bleecker St New York City, NY 10012-1404,40.725581,-73.998078
The Palm Too,840 Second Ave New York City, NY 10017-4370,40.752955,-73.973196
Tomino - Taberna Gallega,192 Grand St New York City, NY 10013-3712,40.722105,-74.003497
Atlantic Grill,49 West 64th Street New York City, NY 10023,40.776765,-73.982213
Dim Sum Palace,334 W 46th St New York City, NY 10036-3883,40.75953,-73.989847
Nix,72 University Pl New York City, NY 10003-4540,40.730223,-73.988564
Redeye Grill,890 7th Avenue at 56th Street New York City, NY 10019-3203,40.765926,-73.985443
Champs Diner,197 Meserole St Brooklyn, NY 11206-2229,40.700453,-73.949255
Jacob Restaurant,373 Lennox Avenue New York City, NY 10027,40.812242,-73.9532
Aunt Jakes NYC,151 Mulberry St New York City, NY 10013-4721,40.722105,-74.003497
Cafe dAlsace,1695 2nd Ave New York City, NY 10128-3219,40.780989,-73.95158
Hendriks,557 3rd Ave New York City, NY 10016-3501,40.745527,-73.978449
Le Relais de Venise LEntrecote Midtown East,590 Lexington Ave New York City, NY 10154-3301,40.757779,-73.972488
Bread & Tulips,365 Park Ave S New York City, NY 10016-8801,40.745527,-73.978449
Periyali,35 W 20th St New York City, NY 10011-3709,40.740916,-73.999769
Le District,225 Liberty St New York City, NY 10281-1048,40.714643,-74.014958
TORST,615 Manhattan Ave Brooklyn, NY 11222-3919,40.728388,-73.945754
Gotham Pizza,852 8th Ave New York City, NY 10019-6244,40.765926,-73.985443
La Gioconda,226 E 53rd St New York City, NY 10022-5207,40.758775,-73.967842
Brownstone Diner & Pancake,426 Jersey Ave Jersey City, NJ 07302-4347,40.726001,-74.047304
Ninja New York,25 Hudson St New York City, NY 10013-3802,40.722105,-74.003497
Inakaya,231 W 40th St New York City, NY 10018-1502,40.755332,-73.993172
Taverna di Bacco,175 Ludlow St New York City, NY 10002-1548,40.718758,-73.986427
Cheri,231 Lenox Ave New York City, NY 10027-6496,40.812242,-73.9532
Sams Place,132 E 39th St. New York City, NY 10016-0914,40.745527,-73.978449
King Cole Bar,2 E 55th St New York City, NY 10022-3103,40.758775,-73.967842
Delicatessen,54 Prince St New York City, NY 10012-3309,40.725581,-73.998078
Ritz Diner,1133 1st Ave New York City, NY 10065-7760,40.764584,-73.963013
Naya Mezze & Grill,1057 2nd Ave New York City, NY 10022-4068,40.758775,-73.967842
Alta,64 W 10th St New York City, NY 10011-8702,40.740916,-73.999769
Fresh & Co,681 Lexington Ave New York City, NY 10022-2625,40.758775,-73.967842
Wine 30,41 E 30th St New York City, NY 10016-7311,40.745527,-73.978449
Sushi of Gari 46,347 W 46th St New York City, NY 10036-3815,40.75953,-73.989847
Treehaus,830 3rd Ave New York City, NY 10022-7523,40.758775,-73.967842
The Smith,1150 Broadway New York City, NY 10001-7692,40.750422,-73.996328
Sangria 46,338 W 46th St New York City, NY 10036-3885,40.75953,-73.989847
Ceci Italian Cuisine,46 W 46th St New York City, NY 10036-4508,40.75953,-73.989847
Obica Mozzarella Bar - Flatiron,928 Broadway New York City, NY 10010-6008,40.739024,-73.983542
Frankie & Johnnies Steakhouse,32 W 37th St New York City, NY 10018-7477,40.755332,-73.993172
Tavern on the Green,67th Street & Central Park West New York City, NY 10023,40.776765,-73.982213
Pick A Bagel,102 N End Ave New York City, NY 10282-1238,40.716597,-74.01459
Shake Shack,300 W 44th St New York City, NY 10036-5419,40.75953,-73.989847
Bar Primi,325 Bowery New York City, NY 10003-8962,40.730223,-73.988564
Lure Fishbar,142 Mercer St New York City, NY 10012-3212,40.725581,-73.998078
EN Japanese Brasserie,435 Hudson St New York City, NY 10014-3941,40.738088,-74.005095
El Vez and Burrito Bar,259 Vesey St New York City, NY 10282,40.716597,-74.01459
Greek Kitchen,889 10th Ave New York City, NY 10019-1030,40.765926,-73.985443
Hill Country Barbecue Market,30 W 26th St New York City, NY 10010-2011,40.739024,-73.983542
Circo,120 W 55th St New York City, NY 10019-5305,40.765926,-73.985443
Ootoya,8 W 18th St New York City, NY 10011-4602,40.740916,-73.999769
West End Bar & Grill,813 8th Ave New York City, NY 10019-7418,40.765926,-73.985443
Nizza,630 9th Ave New York City, NY 10036-3708,40.75953,-73.989847
Johns of 12th Street,302 E 12th St New York City, NY 10003-7255,40.730223,-73.988564
Neapolitan Express,40 Wall St New York City, NY 10005-1304,40.706903,-74.008654
Clover Club,210 Smith St Brooklyn, NY 11201-6437,40.694481,-73.989319
Patsys Pizza,2287 1st Ave New York City, NY 10035-5010,40.801913,-73.9347
Petes Tavern,129 E 18th St New York City, NY 10003-2401,40.730223,-73.988564
Malatesta Trattoria,649 Washington St New York City, NY 10014-2865,40.738088,-74.005095
Lips,227 E 56th St New York City, NY 10022-3754,40.758775,-73.967842
Tonic Times Square,727 7th Ave New York City, NY 10019-6805,40.765926,-73.985443
Radegast Hall & Biergarten,113 N 3rd St Brooklyn, NY 11249-3923,40.645099,-73.945032
Hudson Clearwater,447 Hudson St New York City, NY 10014-3730,40.738088,-74.005095
Baker & Co,259 Bleecker St New York City, NY 10014-4103,40.738088,-74.005095
Lafayette Grand Cafe and Bakery,380 Lafayette St New York City, NY 10003-6933,40.730223,-73.988564
New Wonjo Restaurant,23 W 32nd St New York City, NY 10001-3801,40.750422,-73.996328
Ovest Pizzoteca,513 W 27th St New York City, NY 10001-1155,40.750422,-73.996328
Kiss My Slice,274 W 40th St New York City, NY 10018-1519,40.755332,-73.993172
Elmo,156 7th Ave New York City, NY 10011-1813,40.740916,-73.999769
Gigino Wagner Park,20 Battery Pl New York City, NY 10004-1002,40.68863,-74.018244
Wo Hop,17 Mott St New York City, NY 10013-5029,40.722105,-74.003497
Chai Thai Kitchen,930 8th Ave New York City, NY 10019-4224,40.765926,-73.985443
The Irish American Pub,17 John St New York City, NY 10038-4010,40.710223,-74.003368
Chipotle Mexican Grill,350 5th Ave New York City, NY 10118-0110,40.748998,-73.986467
Cowgirl,519 Hudson St New York City, NY 10014-2601,40.738088,-74.005095
Angelos Pizza,117 W 57th St New York City, NY 10019-2209,40.765926,-73.985443
Lucali,575 Henry St Brooklyn, NY 11231-2707,40.676521,-74.003322
Nano Ecuadorian Kitchen,691 10th Ave New York City, NY 10036-2935,40.75953,-73.989847
At Nine Restaurant & Bar,592 9th Ave New York City, NY 10036-3737,40.75953,-73.989847
Meme Mediterranean,10th Avenue New York City, NY 10036,40.75953,-73.989847
Cherche Midi,282 Bowery New York City, NY 10012-3674,40.725581,-73.998078
Wok To Walk,570 8th Ave New York City, NY 10018-3001,40.755332,-73.993172
Atoboy,43 E 28th St New York City, NY 10016-7921,40.745527,-73.978449
Ninos 46,39 W 46th St New York City, NY 10036-4130,40.75953,-73.989847
Kashkaval,856 9th Ave New York City, NY 10019-4451,40.765926,-73.985443
Cafe China,13 E 37th St New York City, NY 10016-2821,40.745527,-73.978449
Clyde Fraziers Wine and Dine,485 10th Ave New York City, NY 10018-1117,40.755332,-73.993172
Tia Pol,205 10th Ave New York City, NY 10011-4719,40.740916,-73.999769
Le Colonial,149 E 57th St New York City, NY 10022-2101,40.758775,-73.967842
Rocco Steakhouse,72 Madison Ave New York City, NY 10016-8731,40.745527,-73.978449
Numero 28 Pizzeria Napoletana,176 2nd Ave New York City, NY 10003-5738,40.730223,-73.988564
Cafe Duke,140 W 51st St New York City, NY 10020-1203,40.758236,-73.978833
Walkers,16 N Moore St New York City, NY 10013-2415,40.722105,-74.003497
Tappo Thin Crust Pizza,49 W 24th St New York City, NY 10010-3206,40.739024,-73.983542
The House of Brews,363 W 46th St New York City, NY 10036-3818,40.75953,-73.989847
Triomphe,49 W 44th St New York City, NY 10036-6613,40.75953,-73.989847
Cacio e Pepe,182 2nd Ave New York City, NY 10003-5734,40.730223,-73.988564
Yemen Cafe and Restaurant,176 Atlantic Ave Brooklyn, NY 11201-5656,40.694481,-73.989319
Bistro Vendome,405 E 58th St New York City, NY 10022-2302,40.758775,-73.967842
Briciola,370 W 51st St New York City, NY 10019-6403,40.765926,-73.985443
Maialino Resturant,2 Lexington Ave New York City, NY 10010-5405,40.739024,-73.983542
Westside Market NYC,2171 Broadway New York City, NY 10024-6603,40.798452,-73.974414
Extra Virgin,259 W 4th St New York City, NY 10014-3205,40.738088,-74.005095
Cafe Manhattan,35 W 45th St between 5th and 6th avenue New York City, NY 10036,40.75953,-73.989847
Shake Shack,600 3rd Ave New York City, NY 10016-1901,40.745527,-73.978449
Miss Lilys,132 W Houston St New York City, NY 10012-2651,40.725581,-73.998078
Pomodoro Rosso,229 Columbus Ave New York City, NY 10023-4007,40.776765,-73.982213
Glass House Tavern,252 W 47th St New York City, NY 10036-1415,40.75953,-73.989847
HB Burger,127 W 43rd St New York City, NY 10036-6565,40.75953,-73.989847
Lil Frankies Pizza,19 1st Ave New York City, NY 10003-9431,40.730223,-73.988564
The Butchers Daughter,19 Kenmare St New York City, NY 10012-4633,40.725581,-73.998078
Rosa Mexicano - Union Square,9 E 18th St New York City, NY 10003-1903,40.730223,-73.988564
Le Grainne Cafe,183 9th Ave New York City, NY 10011-4906,40.740916,-73.999769
Jack Doyles,240 W 35th St New York City, NY 10001-2506,40.750422,-73.996328
Five Guys,36 W 48th St New York City, NY 10036-1809,40.75953,-73.989847
Bubba Gump Shrimp Co.,1501 Broadway New York City, NY 10036,40.75953,-73.989847
The Grange Bar & Eatery,1635 Amsterdam Ave New York City, NY 10031-6103,40.823438,-73.949039
LA SIRENE,558 Broome St New York City, NY 10013-1508,40.722105,-74.003497
Pig n Whistle,144 W 46th St New York City, NY 10036-8509,40.75953,-73.989847
Bella Blu,967 Lexington Ave New York City, NY 10021-5103,40.768823,-73.960257
Daltons Bar & Grill,611 9th Ave New York City, NY 10036-3732,40.75953,-73.989847
Dannys Gourmet,224 W 47th St New York City, NY 10036-1411,40.75953,-73.989847
Creamline,75 9th Ave New York City, NY 10011-7006,40.740916,-73.999769
Manzo,200 5th Ave New York City, NY 10010-3302,40.739024,-73.983542
OReillys Pub & Restaurant,54 W 31st St New York City, NY 10001-3410,40.750422,-73.996328
Bann,350 W 50th St New York City, NY 10019-6664,40.765926,-73.985443
Casa Nonna,310 W 38th St New York City, NY 10018-3074,40.755332,-73.993172
Nippori,245 W 51st St New York City, NY 10019-6214,40.765926,-73.985443
Omai,158 9th Ave New York City, NY 10011-4912,40.740916,-73.999769
Blue Fin,1567 Broadway New York City, NY 10036,40.75953,-73.989847
Emmetts,50 Macdougal St New York City, NY 10012-2938,40.725581,-73.998078
Cask Bar + Kitchen,167 E 33rd St New York City, NY 10016-4641,40.745527,-73.978449
Peacock Alley,301 Park Ave New York City, NY 10022-6844,40.758775,-73.967842
Friend of a Farmer,77 Irving Pl New York City, NY 10003-2203,40.730223,-73.988564
Haru,229 W 43rd St New York City, NY 10036-3913,40.75953,-73.989847
Tout Va Bien,311 W 51st St New York City, NY 10019-6408,40.765926,-73.985443
Macao Trading Co,311 Church St New York City, NY 10013-2491,40.722105,-74.003497
District Tap House,246 W 38th St New York City, NY 10018-5805,40.755332,-73.993172
Merchants River House,375 S End Ave New York City, NY 10280-1014,40.708857,-74.016217
Fire & Oak - Jersey City,479 Washington Blvd Jersey City, NJ 07310-1972,40.732728,-74.037168
Los Mariscos,409 W 15th St New York City, NY 10011-7003,40.740916,-73.999769
Lusardis Restaurant,1494 2nd Ave New York City, NY 10075-1346,40.773357,-73.956208
Oatmeals,120 W 3rd St New York City, NY 10012-1235,40.725581,-73.998078
Teds Montana Grill,110 W 51st St New York City, NY 10020-1201,40.758236,-73.978833
Morning Star Cafe,949 2nd Ave New York City, NY 10022-7781,40.758775,-73.967842
Ella Kitchen and Bar,249 Columbus Ave New York City, NY 10023-3330,40.776765,-73.982213
The Red Flame Diner,67 W 44th St New York City, NY 10036-6613,40.75953,-73.989847
Topaz Thai Restaurant,127 W 56th St New York City, NY 10019-3809,40.765926,-73.985443
Please Dont Tell,113 St. Marks Place New York City, NY,40.68863,-74.018244
Candle Cafe West,2427 Broadway New York City, NY 10024-1706,40.798452,-73.974414
Pappardella,316 Columbus Ave New York City, NY 10023-1902,40.776765,-73.982213
Wasabi Sushi & Bento,561 7th Avenue New York City, NY 10036,40.75953,-73.989847
La Pecora Bianca,1133 Broadway New York City, NY 10010-7903,40.739024,-73.983542
Tarallucci e Vino Union Square,15 E 18th St New York City, NY 10003-1903,40.730223,-73.988564
Perilla,9 Jones St New York City, NY 10014-4162,40.738088,-74.005095
ODonoghues Pub and Restaurant,156 W 44th St New York City, NY 10036-4024,40.75953,-73.989847
OBriens Irish Pub & Restaurant,134 W 46th St New York City, NY 10036-8504,40.75953,-73.989847
Kellari Taverna,19 W 44th St New York City, NY 10036-5902,40.75953,-73.989847
Famous Famiglia Pizzeria,488 8th Avenue at 34th Street New York City, NY 10123,40.751489,-73.990537
VYNL,756 9th Ave New York City, NY 10019-6633,40.765926,-73.985443
Sofia Wine Bar and Cafe,242 E 50th St New York City, NY 10022-7763,40.758775,-73.967842
Tri Tip Grill,30 Rockefeller Plz New York City, NY 10112-0015,40.759287,-73.979808
Bobby Vans Steakhouse - 50th Street,135 W 50th St New York City, NY 10020-1201,40.758236,-73.978833
Buttermilk Channel,524 Court St Brooklyn, NY 11231-4014,40.676521,-74.003322
Dos Toros Taqueria,137 4th Ave New York City, NY 10003-4916,40.730223,-73.988564
Toloache 82,166 E 82nd St New York City, NY 10028-1822,40.776629,-73.953914
The Soho Grand Bar & Lounge,310 W Broadway New York City, NY 10013-2225,40.722105,-74.003497
Joes Shanghai,9 Pell St New York City, NY 10013-5134,40.722105,-74.003497
Zoob Zib Thai Authentic Noodle Bar,460 9th Ave New York City, NY 10018-5623,40.755332,-73.993172
The Lambs Club,132 W 44th St New York City, NY 10036-4011,40.75953,-73.989847
Brasserie 1605 at the Crowne Plaza Times Square,1605 Broadway New York City, NY 10019-7406,40.765926,-73.985443
Cafe Cranberry,115 W 45th St New York City, NY 10036-4005,40.75953,-73.989847
J.G. Melon,1291 3rd Ave New York City, NY 10021-3301,40.768823,-73.960257
Colonie,127 Atlantic Ave Brooklyn, NY 11201-5546,40.694481,-73.989319
Milon Restaurant,93 1st Ave New York City, NY 10003-2922,40.730223,-73.988564
Le Pain Quotidien,100 Grand St New York City, NY 10013,40.722105,-74.003497
La Mirabelle,102 W 86th St New York City, NY 10024-4054,40.798452,-73.974414
Westlight,111 N 12th St Brooklyn, NY 11249-1022,40.645099,-73.945032
Hearth,403 E 12th St New York City, NY 10009-4024,40.72775,-73.980396
Angelos of Mulberry Street,146 Mulberry St New York City, NY 10013-4708,40.722105,-74.003497
Blue Note,131 W 3rd St New York City, NY 10012-1208,40.725581,-73.998078
Hide-Chan Ramen,248 E 52nd St New York City, NY 10022-6201,40.758775,-73.967842
Docks Oyster Bar,633 3rd Ave New York City, NY 10017-6706,40.752955,-73.973196
Papaya King,179 E 86th St New York City, NY 10028-2106,40.776629,-73.953914
Table DHote,44 E 92nd St New York City, NY 10128-1319,40.780989,-73.95158
Thai Villa,5 E 19th St New York City, NY 10003-1107,40.730223,-73.988564
Caviar Russe,538 Madison Ave New York City, NY 10022-3215,40.758775,-73.967842
The Bread Factory Cafe,470 Fashion Ave New York City, NY 10018-7600,40.755332,-73.993172
Yum Yum Too,622 9th Ave New York City, NY 10036-3703,40.75953,-73.989847
Pascalou,1308 Madison Ave New York City, NY 10128-1351,40.780989,-73.95158
Bobby Vans Steak House,230 Park Ave New York City, NY 10169-0005,40.75474,-73.976595
Osteria Laguna Restaurant,209 E 42nd St New York City, NY 10017-5701,40.752955,-73.973196
Atrium Dumbo,15 Main St Brooklyn, NY 11201-1003,40.694481,-73.989319
David Burke Kitchen,23 Grand St New York City, NY 10013-1618,40.722105,-74.003497
Little Italy NYC,151 Mulberry St New York City, NY 10013-4721,40.722105,-74.003497
The Little Beet Table,333 Park Ave S New York City, NY 10010-2906,40.739024,-73.983542
BCD Tofu House,5 W 32nd St New York City, NY 10001-3801,40.750422,-73.996328
Indian Project,243 W 38th St New York City, NY 10018-4444,40.755332,-73.993172
Petit Poulet,52 W 33rd St New York City, NY 10001-3302,40.750422,-73.996328
Superiority Burger,430 E 9th St New York City, NY 10009-4922,40.72775,-73.980396
Food Gallery 32,11 W 32nd St New York City, NY 10001-3819,40.750422,-73.996328
Pax Wholesome Foods,202 E 42nd St New York City, NY 10017-5808,40.752955,-73.973196
View Of The World,140 Washington St New York City, NY 10006-1071,40.708834,-74.013168
Cafe Viand,2130 Broadway New York City, NY 10023-1724,40.776765,-73.982213
Rice N Beans,744 9th Ave New York City, NY 10019-6624,40.765926,-73.985443
EJs Luncheonette,1271 3rd Ave New York City, NY 10021-3657,40.768823,-73.960257
Wild Ginger Pan Asian,380 Broome St New York City, NY 10013-3748,40.722105,-74.003497
Le Pain Quotidien,70 W 40th St New York City, NY 10018-2671,40.755332,-73.993172
230 Fifth,230 5th Ave New York City, NY 10001-7704,40.750422,-73.996328
BXL Zoute,50 W 22nd St New York City, NY 10010-5883,40.739024,-73.983542
Sarabeths East,1295 Madison Ave New York City, NY 10128-1301,40.780989,-73.95158
Tribeca Grill,375 Greenwich St New York City, NY 10013-2376,40.722105,-74.003497
Don Giovvanni Ristorante,358 W 44th St New York City, NY 10036-5426,40.75953,-73.989847
Upstairs at the Kimberly,145 E 50th St New York City, NY 10022-9502,40.758775,-73.967842
Darbar,152 E 46th St New York City, NY 10017-2610,40.752955,-73.973196
Paesano of Mulberry Street,136 Mulberry St New York City, NY 10013-4910,40.722105,-74.003497
The Little Beet,135 W 50th St New York City, NY 10020-1201,40.758236,-73.978833
California Pizza Kitchen,440 Park Ave S New York City, NY 10016-8012,40.745527,-73.978449
Sergimmo Salumeria,456 9th Ave New York City, NY 10018-5614,40.755332,-73.993172
Salon de Ning ROOFTOP,700 5th Avenue at 55th Street New York City, NY 10019,40.765926,-73.985443
Brendans Bar & Grill,42 W 35th St New York City, NY 10001-2222,40.750422,-73.996328
St. Cloud Social Rooftop,6 Times Square New York City, NY 10036,40.75953,-73.989847
Benoit New York,60 W 55th St New York City, NY 10019-5308,40.765926,-73.985443
Mandoo Bar,2 W 32nd St New York City, NY 10001-3809,40.750422,-73.996328
Blue Water Grill,31 Union Square West New York City, NY 10003,40.730223,-73.988564
Zen Ramen & Sushi,150 West 36Th Street New York City, NY 10018,40.755332,-73.993172
Stage Door Delicatessen,360 9th Ave New York City, NY 10001-1652,40.750422,-73.996328
Scallywags Irish Pub and Restaurant,508 9th Ave New York City, NY 10018-2806,40.755332,-73.993172
La Bonne Soupe,48 W 55th St New York City, NY 10019-5313,40.765926,-73.985443
The Standard Grill,Corner of Washington and West 13th Street New York City, NY 10014,40.738088,-74.005095
Georges Restaurant,89 Greenwich St New York City, NY 10006-2205,40.708834,-74.013168
Zio Ristorante,17 W 19th St New York City, NY 10011-4332,40.740916,-73.999769
Luna Piena Ristorante,243 E 53rd St New York City, NY 10022-4801,40.758775,-73.967842
Bodega Negra,355 W 16th St New York City, NY 10011-5902,40.740916,-73.999769
Shortys,576 9th Ave New York City, NY 10036-3733,40.75953,-73.989847
Jubilee,948 1st Ave New York City, NY 10022-6471,40.758775,-73.967842
Brooklyn Diner,155 W 43rd St New York City, NY 10036,40.75953,-73.989847
Top Hops,94 Orchard St New York City, NY 10002-3173,40.718758,-73.986427
Smith & Wollensky - New York City,797 3rd Ave New York City, NY 10022-6226,40.758775,-73.967842
The Long Room,120 W 44th Street 6th Avenue & 7th Avenue New York City, NY 10036-4011,40.75953,-73.989847
Normas,119 W 56th St New York City, NY 10019-4000,40.765926,-73.985443
DeGrezia Ristorante,231 E 50th St New York City, NY 10022-7715,40.758775,-73.967842
Pig and Khao,68 Clinton St New York City, NY 10002-2408,40.718758,-73.986427
Obao,222 E 53rd St New York City, NY 10022-5205,40.758775,-73.967842
The Todd English Food Hall,1 W 59th St New York City, NY 10019,40.765926,-73.985443
The East Pole,133 E 65th St New York City, NY 10065-7029,40.764584,-73.963013
Viv Regional Thai Cuisine,138 East 34Street. Between Lexington and 3ave New York City, NY 10016,40.745527,-73.978449
Uncle Nicks Greek Cuisine,382 8th Ave New York City, NY 10001-4848,40.750422,-73.996328
Pign Whistle On Third,922 3rd Ave New York City, NY 10022-3605,40.758775,-73.967842
Peacefood Cafe,41 E 11th St New York City, NY 10003-4602,40.730223,-73.988564
Gallow Green,542 W 27th St New York City, NY 10001-5506,40.750422,-73.996328
Nom Wah Tea Parlor,13 Doyers St New York City, NY 10013-5104,40.722105,-74.003497
Five Guys,343 7th Ave New York City, NY 10001-5093,40.750422,-73.996328
Wondee Siam I,792 9th Ave New York City, NY 10019-5639,40.765926,-73.985443
Burger Joint,33 W 8th St New York City, NY 10011-9039,40.740916,-73.999769
Valhalla,815 9th Ave New York City, NY 10019-5601,40.765926,-73.985443
Empire Diner,210 10th Ave New York City, NY 10011-4711,40.740916,-73.999769
Bills Bar & Burger,16 West 51st Street New York City, NY 10019,40.765926,-73.985443
Gaby Brasserie Francaise,44 W 45th St New York City, NY 10036-4261,40.75953,-73.989847
La Pizza,200 5th Ave New York City, NY 10010-3302,40.739024,-73.983542
Petrossian Boutique & Cafe,911 7th Ave New York City, NY 10019-2102,40.765926,-73.985443
City Kitchen,700 8th Ave New York City, NY 10036-3901,40.75953,-73.989847
Draught 55,245 E 55th St New York City, NY 10022-4022,40.758775,-73.967842
Chirping Chicken,355 Amsterdam Ave New York City, NY 10024-6903,40.798452,-73.974414
Elysian Cafe,1001 Washington St Hoboken, NJ 07030-5201,40.746851,-74.033934
Le Cirque,151 E 58th St New York City, NY 10022-1287,40.758775,-73.967842
Skinners Loft,146 Newark Ave Jersey City, NJ 07302-2812,40.726001,-74.047304
Babbalucci,331 Lennox Av New York City, NY 10027,40.812242,-73.9532
Supernova - Novotel Hotel Times Square,226 W 52nd St New York City, NY 10019-5802,40.765926,-73.985443
SuteiShi,24 Peck Slip New York City, NY 10038-1750,40.710223,-74.003368
Smashbhrger,10 W 33rd St New York City, NY 10001-3306,40.750422,-73.996328
Vandal,199 Bowery New York City, NY 10002-2853,40.718758,-73.986427
Il Piccolo Bufalo,141 Mulberry St New York City, NY 10013-5200,40.722105,-74.003497
Spring Natural Kitchen,474 Columbus Ave New York City, NY 10024-5108,40.798452,-73.974414
Mad Dog & Beans,83 Pearl St New York City, NY 10004-2602,40.68863,-74.018244
Pret A Manger,179 Broadway New York City, NY 10007-3101,40.713941,-74.007401
Mas (farmhouse),39 Downing St New York City, NY 10014,40.738088,-74.005095
Mercato,352 W 39th St New York City, NY 10018-1419,40.755332,-73.993172
Burger & Barrel,25 W Houston St New York City, NY 10012-1538,40.725581,-73.998078
Cellini,65 E 54th St New York City, NY 10022-4224,40.758775,-73.967842
Arriba Arriba Mexican Restaurant,762 9th Ave New York City, NY 10019-6335,40.765926,-73.985443
Philip Marie Restaurant,569 Hudson St New York City, NY 10014-2118,40.738088,-74.005095
Dirty French,180 Ludlow St New York City, NY 10002-1514,40.718758,-73.986427
Puglia Restaurant,189 Hester St New York City, NY 10013-4776,40.722105,-74.003497
The Dutch,131 Sullivan St New York City, NY 10012-3043,40.725581,-73.998078
Excuse My French,96 Orchard St New York City, NY 10002-3150,40.718758,-73.986427
Playwright Irish Pub,27 W 35th St New York City, NY 10001-2247,40.750422,-73.996328
Fairway Cafe,2127 Broadway New York City, NY 10023-1791,40.776765,-73.982213
Bens Kosher Delicatessen Restaurant & Caterers,209 W 38th St New York City, NY 10018-4405,40.755332,-73.993172
Pietros,232 E 43rd St New York City, NY 10017-4713,40.752955,-73.973196
Frying Pan,207 12th Ave Pier 66 New York City, NY 10001-1007,40.750422,-73.996328
Schnippers,570 Lexington Ave New York City, NY 10022-6837,40.758775,-73.967842
Caffe Palermo,148 Mulberry St New York City, NY 10013-4722,40.722105,-74.003497
Il Corallo Trattoria,172 Prince St New York City, NY 10012-2947,40.725581,-73.998078
Porteno,299 10th Ave New York City, NY 10001-7015,40.750422,-73.996328
Chipotle Mexican Grill,304 W 34th St New York City, NY 10001-1632,40.750422,-73.996328
Babbo Ristorante e Enoteca,110 Waverly Pl New York City, NY 10011-9102,40.740916,-73.999769
Hurleys Saloon,232 W 48th St New York City, NY 10036-5691,40.75953,-73.989847
Byblos Restaurant,80 Madison Ave New York City, NY 10016-7420,40.745527,-73.978449
Red Poke,600 9th Ave New York City, NY 10036-3701,40.75953,-73.989847
Pepe Rosso Social,173 Mott St New York City, NY 10013-4230,40.722105,-74.003497
Grand Central Oyster Bar & Restaurant,89 E 42nd St New York City, NY 10017-5503,40.752955,-73.973196
Skylight Diner,402 W 34th St New York City, NY 10001-2353,40.750422,-73.996328
Timna,109 Saint Marks Pl New York City, NY 10009-5120,40.72775,-73.980396
Ashleys Fine Foods,500 Lexington Ave New York City, NY 10017-2035,40.752955,-73.973196
Thaimee Table,99 3rd Ave New York City, NY 10003,40.730223,-73.988564
Metro Grill,45 W 35th St New York City, NY 10001-2277,40.750422,-73.996328
Lido,2168 Frederick Douglass Blvd New York City, NY 10026-2001,40.802918,-73.953107
Indochine,430 Lafayette St New York City, NY 10003-6916,40.730223,-73.988564
Chopt Salad,120 W 56th St New York City, NY 10019-3866,40.765926,-73.985443
Five Senses,9 W 32nd St New York City, NY 10001-3863,40.750422,-73.996328
Thai Market,960 Amsterdam Ave New York City, NY 10025-3002,40.798664,-73.967778
Cosmic Diner,888 8th Ave New York City, NY 10019-5704,40.765926,-73.985443
Westville Dumbo,81 Washington St Brooklyn, NY 11201-1411,40.694481,-73.989319
Gyu-Kaku Japanese BBQ Dining,34 Cooper Sq New York City, NY 10003-7110,40.730223,-73.988564
Heidelberg Restaurant,1648 2nd Ave New York City, NY 10028-3111,40.776629,-73.953914
Cosme,35 E 21st St New York City, NY 10010-6212,40.739024,-73.983542
Junoon Restaurant,27 W 24th St New York City, NY 10010-3290,40.739024,-73.983542
Havana Social,688 10th Ave New York City, NY 10019-7104,40.765926,-73.985443
Brasserie Ruhlmann,45 Rockefeller Plz New York City, NY 10111-0100,40.759224,-73.977762
Barilla Restaurant,108 W 32nd St New York City, NY 10001-0074,40.750422,-73.996328
Cucina Liberta Market,17 Battery Pl New York City, NY 10004-1207,40.68863,-74.018244
The Flatiron Room,37 W 26th St New York City, NY 10010-1006,40.739024,-73.983542
Route 66 Cafe,858 9th Ave New York City, NY 10019-4459,40.765926,-73.985443
Sapori DItalia,105 Mulberry St New York City, NY 10013-4649,40.722105,-74.003497
Angels Share,8 Stuyvesant St New York City, NY 10003-7501,40.730223,-73.988564
Chazz Palminteri Italian Restaurant,30 W 46th St New York City, NY 10036-4500,40.75953,-73.989847
Tacuba Hells Kitchen Cantina Mexicana,802 9th Ave New York City, NY 10019-5635,40.765926,-73.985443
Bryant Park Grill,25 W 40th St New York City, NY 10018-2601,40.755332,-73.993172
Wolfgangs Steakhouse,4 Park Ave New York City, NY 10016-5339,40.745527,-73.978449
Beer Authority,613 8th Ave New York City, NY 10018-3004,40.755332,-73.993172
Europa Cafe,1700 Broadway New York City, NY 10019-5905,40.765926,-73.985443
Snack EOS,522 9th Ave New York City, NY 10018-2803,40.755332,-73.993172
indikitch,25 W 23rd St New York City, NY 10010,40.739024,-73.983542
The Spotted Pig,314 W 11th St New York City, NY 10014-2369,40.738088,-74.005095
The Crosby Bar,79 Crosby St New York City, NY 10012-3905,40.725581,-73.998078
Sarabeths West,423 Amsterdam Ave New York City, NY 10024-5856,40.798452,-73.974414
Brunetti Pizza,626 Hudson St New York City, NY 10014-5115,40.738088,-74.005095
Stella 34 Trattoria,151 W 34th St New York City, NY 10001-2101,40.750422,-73.996328
La Villetta,398 E 52nd St New York City, NY 10022-6460,40.758775,-73.967842
Industry Kitchen,70 South St New York City, NY 10005-1616,40.706903,-74.008654
Delice & Sarrasin,20 Christopher St New York City, NY 10014-3527,40.738088,-74.005095
Supper,156 E 2nd St New York City, NY 10009-7719,40.72775,-73.980396
Pergola Des Artistes,252 W 46th St New York City, NY 10036-1543,40.75953,-73.989847
Le Pain Quotidien,708 Third Ave New York City, NY 10017,40.752955,-73.973196
Harry Cipriani Restaurant,781 5th Ave New York City, NY 10022-1092,40.758775,-73.967842
Joe Gs Restaurant Italiano,244 W 56th St New York City, NY 10019-4306,40.765926,-73.985443
One World Observatory Restaurant,72 Vesey St New York City, NY 10007-2194,40.713941,-74.007401
Del Friscos Grille,50 Rockefeller Plz New York City, NY 10020-1605,40.758236,-73.978833
Morgans Barbecue,267 Flatbush Ave Brooklyn, NY 11217,40.684948,-73.980613
Serafina,210 W 55th St New York City, NY 10019-5467,40.765926,-73.985443
Lybane,709 8th Ave New York City, NY 10036-7111,40.75953,-73.989847
Brother Jimmys BBQ,416 8th Ave New York City, NY 10001-1801,40.750422,-73.996328
Tartinery,209 Mulberry St New York City, NY 10012-4565,40.725581,-73.998078
Schnippers,620 8th Ave New York City, NY 10018-1618,40.755332,-73.993172
Flor De Mayo Restaurant,2651 Broadway New York City, NY 10025-5024,40.798664,-73.967778
Patsys Pizza--74th Street,61 W 74th St New York City, NY 10023-2433,40.776765,-73.982213
Fabio Cucina Italiana,214 E 52nd St New York City, NY 10022-6207,40.758775,-73.967842
Moonstruck Diner,244 Madison Ave New York City, NY 10016-2817,40.745527,-73.978449
Rattle and Hum,14 E 33rd St New York City, NY 10016-5013,40.745527,-73.978449
Root & Bone,200 E 3rd St New York City, NY 10009-7716,40.72775,-73.980396
Yum Yum Bangkok,650 9th Ave New York City, NY 10036-3635,40.75953,-73.989847
Storico,170 Central Park W New York City, NY 10024-5152,40.798452,-73.974414
Brushstroke,30 Hudson St New York City, NY 10013,40.722105,-74.003497
Bar Italia,768 Madison Ave New York City, NY 10065-6565,40.764584,-73.963013
LAVO Italian Restaurant & Nightclub,39 E 58th St New York City, NY 10022-1617,40.758775,-73.967842
Chart House,Lincoln Harbor Pier D-T Weehawken, NJ 07086,40.767828,-74.020791
Nios,130 W 46th St New York City, NY 10036,40.75953,-73.989847
Mintons,206 W 118th St New York City, NY 10026-1736,40.802918,-73.953107
Cecconis Dumbo,55 Water St Brooklyn, NY 11201-1052,40.694481,-73.989319
Satis Bistro,212 Washington St Jersey City, NJ 07302-4567,40.726001,-74.047304
STK Midtown,1114 Avenue of the Americas New York City, NY 10036-7703,40.75953,-73.989847
Epistrophy,200 Mott St New York City, NY 10012-4543,40.725581,-73.998078
Carbone,181 Thompson St New York City, NY 10012-2583,40.725581,-73.998078
Red Lobster,5 Times Square New York City, NY 10036-6527,40.75953,-73.989847
Salinas,136 9th Ave New York City, NY 10011-4949,40.740916,-73.999769
Becco,355 W 46th St New York City, NY 10036-3810,40.75953,-73.989847
Coppolas East Side,378 3rd Ave New York City, NY 10016-9042,40.745527,-73.978449
Casa Enrique,548 49th Ave Long Island City, NY 11101-5611,40.744622,-73.934502
Famous Famiglia,686 8th Ave New York City, NY 10036-7114,40.75953,-73.989847
Meadowsweet,149 Broadway Brooklyn, NY 11211-8249,40.712597,-73.953098
Square Diner,33 Leonard St New York City, NY 10013-2918,40.722105,-74.003497
Serafina,1022 Madison Ave New York City, NY 10075-0103,40.773357,-73.956208
Chipotle Mexican Grill,2 Broadway New York City, NY 10004-2207,40.68863,-74.018244
B Squared,679 9th Ave New York City, NY 10036-3618,40.75953,-73.989847
Tonys Di Napoli,Third Ave and E. 64th ST New York City, NY,40.68863,-74.018244
AlMar,111 Front St Brooklyn, NY 11201-1007,40.694481,-73.989319
Aldo Sohm Wine Bar,151 W 51st St New York City, NY 10019-6019,40.765926,-73.985443
Fig & Olive Uptown,808 Lexington Ave New York City, NY 10065-7312,40.764584,-73.963013
Distilled,211 W Broadway New York City, NY 10013-2927,40.722105,-74.003497
Star on 18,128 10th Ave New York City, NY 10011-4704,40.740916,-73.999769
lAmico,849 Avenue of the Americas New York City, NY 10001-4101,40.750422,-73.996328
Villa Mosconi,69 Macdougal St New York City, NY 10012-2540,40.725581,-73.998078
DuMont Burger,314 Bedford Ave Brooklyn, NY 11249-4881,40.645099,-73.945032
Inatteso Pizzabar,28 West St New York City, NY 10004-1053,40.68863,-74.018244
Rue 57,60 W 57th St New York City, NY 10019-3953,40.765926,-73.985443
Vapiano Union Square,133 University Pl New York City, NY 10003-4509,40.730223,-73.988564
Lansdowne Road,599 10th Ave New York City, NY 10036-3008,40.75953,-73.989847
Lavagna,545 E 5th St New York City, NY 10009-6729,40.72775,-73.980396
Connollys Pub & Restaurant,150 E 47th St New York City, NY 10017-2018,40.752955,-73.973196
Barn Joo,35 Union Square W New York City, NY 10003-3200,40.730223,-73.988564
Cascade Cafe,900 8th Ave New York City, NY 10019-6498,40.765926,-73.985443
The Mark Restaurant by Jean Georges,25 E 77th St New York City, NY 10075-1711,40.773357,-73.956208
BXL East,125 W 43rd St New York City, NY 10036-6505,40.75953,-73.989847
Sacco Pizza,819 9th Ave New York City, NY 10019-4461,40.765926,-73.985443
Gemma,335 Bowery New York City, NY 10003-7138,40.730223,-73.988564
Brooklyn Crab,24 Reed St Brooklyn, NY 11231-1006,40.676521,-74.003322
Sinigual,640 3rd Ave New York City, NY 10017-5641,40.752955,-73.973196
Shanghai Cafe,100 Mott St New York City, NY 10013-4626,40.722105,-74.003497
Ponche Taqueria & Cantina,420 W 49th St New York City, NY 10019-7255,40.765926,-73.985443
The Strand Bistro,33 W 37th St New York City, NY 10018-6201,40.755332,-73.993172
Beyond Sushi,75 9th Ave New York City, NY 10011-7006,40.740916,-73.999769
Megu,355 W 16th St New York City, NY 10011-5902,40.740916,-73.999769
Lexington Brass,517 Lexington Ave New York City, NY 10017-1204,40.752955,-73.973196
Cafe Frida,368 Columbus Ave New York City, NY 10024-5109,40.798452,-73.974414
The Brindle Room,277 E 10th St New York City, NY 10009-4825,40.72775,-73.980396
Rucola,190 Dean St Brooklyn, NY 11217-2212,40.684948,-73.980613
cafeteria,119 7th Avenue New York New York City, NY 10010,40.739024,-73.983542
Mokbar,75 9th Ave New York City, NY 10011-7006,40.740916,-73.999769
Patsys,450 Dean St Brooklyn, NY 11217-3498,40.684948,-73.980613
Judge Roy Bean Public House,38 W 56th St New York City, NY 10019-3814,40.765926,-73.985443
Premier Cafe,856 7th Ave New York City, NY 10019-5204,40.765926,-73.985443
Morning Star Restaurant,879 9th Avenue at 57 Street New York City, NY 10019,40.765926,-73.985443
Vinegar Hill House,72 Hudson Ave Brooklyn, NY 11201-1222,40.694481,-73.989319
Rosie OGradys,800 7th Ave New York City, NY 10019-5810,40.765926,-73.985443
Via Quadronno,25 E 73rd St New York City, NY 10021-3521,40.768823,-73.960257
La Boite en Bois,75 W 68th St New York City, NY 10023-5306,40.776765,-73.982213
Jules Bistro,65 Saint Marks Pl New York City, NY 10003-7913,40.730223,-73.988564
El Quijote,226 W 23rd St New York City, NY 10011-2301,40.740916,-73.999769
Tavern 29,47 E 29th St New York City, NY 10016-7902,40.745527,-73.978449
Legends New York City,6 W 33rd St New York City, NY 10001-3321,40.750422,-73.996328
TBar,1278 3rd Ave New York City, NY 10021-3656,40.768823,-73.960257
Sardis Restaurant,234 W 44th St New York City, NY 10036-3909,40.75953,-73.989847
Grimaldis Coal Brick Oven,133 Clinton St Hoboken, NJ 07030-2501,40.746851,-74.033934
Mezetto,161 E Houston St New York City, NY 10002-1004,40.718758,-73.986427
by CHLOE. 22nd Street,60 W 22nd St. New York City, NY 10010,40.739024,-73.983542
Hyatt Regency Jersey City,2 Exchange Pl Jersey City, NJ 07302-3901,40.726001,-74.047304
Brass Monkey,55 Little West 12th St New York City, NY 10014-1304,40.738088,-74.005095
Non Solo Piada,302 West 37th Street New York City, NY 10018-4299,40.755332,-73.993172
Da Umberto,107 W 17th St New York City, NY 10011-5471,40.740916,-73.999769
Carroll Place,157 Bleecker St New York City, NY 10012-1625,40.725581,-73.998078
Il Vagabondo,351 E 62nd St New York City, NY 10065-7770,40.764584,-73.963013
Playwright Tavern & Restaurant,202 W 49th St New York City, NY 10019-6810,40.765926,-73.985443
Kefi,505 Columbus Ave New York City, NY 10024-4467,40.798452,-73.974414
Maoz Vegetarian,38 Union Sq E New York City, NY 10003-3210,40.730223,-73.988564
Astro Restaurant,1361 6th Avenue New York City, NY 10019-3811,40.765926,-73.985443
The Cinnamon Snail,2 Pennsylvania Plaza New York City, NY 10121,40.74964,-73.991889
The Heartland Brewery and Rotisserie at the Empire State Building,350 5th Ave New York City, NY 10118-0110,40.748998,-73.986467
Harrys Italian Pizza Bar,2 Gold St New York City, NY 10038-4821,40.710223,-74.003368
St. Anselm,355 Metropolitan Ave Brooklyn, NY 11211-3309,40.712597,-73.953098
Speedys Fresh Food Cafe,1271 Broadway New York City, NY 10001-3508,40.750422,-73.996328
Arco Cafe,886 Amsterdam Ave New York City, NY 10025-4452,40.798664,-73.967778
Playwright Celtic Pub,732 8th Ave New York City, NY 10036-7019,40.75953,-73.989847
Omars Kitchen & Bakery,154 E 55th St New York City, NY 10022-4513,40.758775,-73.967842
Kung Fu Kitchen,610 8th Ave New York City, NY 10018-3002,40.755332,-73.993172
Patsys Pizzeria,206 E 60th St New York City, NY 10022-1463,40.758775,-73.967842
Nai Tapas Bar,174 1st Ave New York City, NY 10009-4506,40.72775,-73.980396
Rare Bar & Grill,303 Lexington Ave New York City, NY 10016-3165,40.745527,-73.978449
Taverna Kyclades East Village,228 1st Ave New York City, NY 10009-3468,40.72775,-73.980396
Eats,1055 Lexington Ave New York City, NY 10021-3205,40.768823,-73.960257
